FID,geom,site_name,site_address,site_city,site_state,site_zip,site_region,site_area,site_pci,globalid,client_globalid,Latitude,Longitude
Sites.605,POINT (-122.84138277296222 49.22737244312981),7045,1900 United Boulevard,Coquitlam,BC,,,255345,68,{a415b7f4-fcfe-46c0-999c-69c813d3439c},,49.22737244312980000000,-122.84138277296200000000
Sites.634,POINT (-122.88719738561471 49.13694419300363),7044,7350 120 St,Surrey,BC,,,272709,50,{0d417700-741b-4ad8-8566-c01e9aa74eb7},,49.13694419300360000000,-122.88719738561400000000
Sites.552,POINT (-122.66730181899261 49.121769072209005),Store 7041,6550 200 St,Langley Twp,BC,V2Y 1P2,,223490,54,{28bbe928-ad8e-cc92-12fe9ad8bb16},,49.12176907220900000000,-122.66730181899200000000
Sites.320,POINT (-122.33820599801908 48.44802589656743),8561,2001 Marketplace Dr.,Burlington,WA,98233,,293663,72,{82670453-16c2-4f21-806d-529e04321057},{9b4a0617-081d-4cb9-89ce-f5a31ccd9a61},48.44802589656740000000,-122.33820599801900000000
Sites.387,POINT (-122.65489931107243 48.29316677270344),8563,31800 State Rte 20,Oak Harbor,WA,98277,,263624,87,{29be2ac1-d863-4898-9c1f-4a9e00327e42},{9b4a0617-081d-4cb9-89ce-f5a31ccd9a61},48.29316677270340000000,-122.65489931107200000000
Sites.389,POINT (-123.13062477771089 48.07699807732037),8998,1145 W Washington St.,Sequim,WA,98382,,255531,66,{39aec50d-2251-4c61-b7db-926e366d20c4},,48.07699807732030000000,-123.13062477771000000000
Sites.342,POINT (-122.10391298859952 48.00255430669413),Frontier Village S.C.,SR 9 & Snohomish Marysville Rd.,Lake Stevens,WA,98258,,445473,53,{d5e1b182-986c-4a92-b017-53dd4cc748a7},{9332e7f4-c292-4480-af81-dacc89da5a87},48.00255430669410000000,-122.10391298859900000000
Sites.272,POINT (-122.21374681393502 47.876799239183825),Gateway S.C.,Bothell Everett Hwy. & 132nd St. SE,Mill Creek,WE,98012,,255526,87,{c95a06f4-46ed-41bf-99bd-4b3f29fdc00a},,47.87679923918380000000,-122.21374681393500000000
Sites.184,POINT (-117.40942577651091 47.708832609552566),Franklin Park SC,Division St & Rowan Ave,Spokane,WA,99208,,180977,51,{48692d40-077a-49a5-a8a3-c2e639d21466},,47.70883260955250000000,-117.40942577651000000000
Sites.360,POINT (-122.68943811595484 47.651965020495425),"114950 - Silverdale Plaza
",2950 NW Bucklin Hill Rd,Silverdale,WA,98383,,389049,48,{aa0b51f6-40da-4f10-9895-590f03a417ff},{9332e7f4-c292-4480-af81-dacc89da5a87},47.65196502049540000000,-122.68943811595400000000
Sites.42,POINT (-122.35484795599996 47.62513901500006),Queen Anne Marketplace,Mercer St & 1st Ave,Seattle,WA,98109,,18767,62,{86071578-27A7-4EC5-9432-867610F4298E},,47.62513901500000000000,-122.35484795599900000000
Sites.394,POINT (-122.33588479866296 47.57905958260966),4702,2701 Utah Ave S,Seattle,WA,98134,,157910,76,{561398c0-0018-4535-92d5-b8979cf22f32},,47.57905958260960000000,-122.33588479866200000000
Sites.313,POINT (-122.17143094508396 47.57334773274838),The Marketplace at Factoria,Factoria Blvd. SE & I-90,Bellevue,WA,98006,,1025353,57,{ab3d8e07-f581-4378-b92c-32d91f3ec621},,47.57334773274830000000,-122.17143094508300000000
Sites.61,POINT (-122.28823309599994 47.56888343800006),Rainier Square Plaza,Rainier Ave S & S Charles St,Seattle,WA,98118,194942,194942,48,{23A3408B-5B21-4985-9574-F82C0243C4B5},,47.56888343800000000000,-122.28823309599900000000
Sites.341,POINT (-122.26021369794853 47.44716974932835),Parkway Super Center,Southcewnter PKWY & Minkler BLVD,Tukwila,WA,98188,,742744,58,{2f3297aa-c6db-4c15-a553-ebf40c201c65},{9332e7f4-c292-4480-af81-dacc89da5a87},47.44716974932830000000,-122.26021369794800000000
Sites.257,POINT (-122.20469216313639 47.367285533520125),Canyon Ridge Plaza,104th Ave. SE & SE 260th St.,Kent,WA,98030,,144541,80,{4f1e4617-24f5-4f82-9822-0ae6c3a47165},,47.36728553352010000000,-122.20469216313600000000
Sites.368,POINT (-122.31497436072134 47.321518239459756),100350 Pavilions Square,Pacific Hwy S. & S. 312th St,Federal Way,WA,98003,,450337,58,{4bc7af6a-dc2a-43a8-9e6d-abcdefab1276},,47.32151823945970000000,-122.31497436072100000000
Sites.375,POINT (-122.22329224345742 47.32022605896933),Auburn North,Auburn Way N. & 15th St. NE,Auburn,WA,98002,,357301,86,{cdcd5ec2-ee95-4fea-90f0-4cd8f9bf81de},,47.32022605896930000000,-122.22329224345700000000
Sites.627,POINT (-122.49922432264455 47.233103014165415),4720,4602 Center St,Tacoma,WA,98409,,273634,82,{67e562ca-2d32-47db-bfab-939d568f2722},{9b4a0617-081d-4cb9-89ce-f5a31ccd9a61},47.23310301416540000000,-122.49922432264400000000
Sites.16,POINT (-122.46667723699994 47.213337945000035),830 - Tacoma,2214 S 48th St,Tacoma,WA,98409,,144274,80,{82AE7D37-21AD-4D1C-8B3D-50DA0DF3D23E},,47.21333794500000000000,-122.46667723699900000000
Sites.56,POINT (-122.29442670699996 47.135088934000066),Meridian Town Center,Meridian Ave E & 132nd St,Pullayup,WA,98373,,109660,58,{59373770-2F8F-406E-9ACE-B1F3599A84E5},,47.13508893400000000000,-122.29442670699900000000
Sites.431,POINT (-122.76288485247865 47.06016223795646),4742,1450 Marvin Rd NE,Lacey,VA,98516,,327888,69,{b45afb04-a2ee-4909-8b05-cc76a41b14da},{9b4a0617-081d-4cb9-89ce-f5a31ccd9a61},47.06016223795640000000,-122.76288485247800000000
Sites.271,POINT (-123.8422259849896 46.96568703267337),8964,2213 Port Industrial Rd,Aberdeen,WA,98520,,275056,91,{81388d73-b46a-4c8a-9b3e-0d190ff25882},{9b4a0617-081d-4cb9-89ce-f5a31ccd9a61},46.96568703267330000000,-123.84222598498900000000
Sites.185,POINT (-96.86599435099335 46.85340259103955),3701,4700 17th Avenue SW,Fargo,ND,58103,,300578,68,{a85e4d1e-940c-4a2c-9576-84ae992e39e0},,46.85340259103950000000,-96.86599435099330000000
Sites.90,POINT (-96.11335430369051 46.28757578558806),,2025 W Lincoln Ave West,Fergus Falls,MN,56537,,395610,0,{8b4998f8-bb84-4d1b-b7a0-6b75d129818d},,46.28757578558800000000,-96.11335430369050000000
Sites.198,POINT (-119.29416839343689 45.85374815406102),4031,300 W Harper Rd.,Hermiston,OR,97838,,244177,79,{5aceb770-93f9-4b96-903f-64aa3803c66f},,45.85374815406100000000,-119.29416839343600000000
Sites.297,POINT (-88.03324777500112 45.807660720272914),2775,W8141 US-2,Iron Mountain,MI,49801,,276226,92,{a60f062f-c0ff-47dd-a3c6-f00b743d2a94},{9b4a0617-081d-4cb9-89ce-f5a31ccd9a61},45.80766072027290000000,-88.03324777500110000000
Sites.415,POINT (-122.685127276644 45.61253558824588),Jantzen Beach Center,N. Hayden Island Dr. & N. Center Ave. ,Portland,OR,97217,,1582539,79,{637a09a7-5046-4015-be56-a46134d522bc},,45.61253558824580000000,-122.68512727664400000000
Sites.610,POINT (-122.68641357090652 45.612295270082434),4007,1728 N Tomahawk Island Dr,Portland,OR,97217,,244382,65,{da982644-0002-4ef7-a025-5f1741b4b2cf},,45.61229527008240000000,-122.68641357090600000000
Sites.600,POINT (-122.8688487338852 45.536138477013644),"115330 - Tanasbourne Village
","NW Evergreen Pkwy, NW 185th Ave",Hillsboro,OR,97124,,481568,27,{5d0aeda9-7bc9-4f1b-bd95-765db53beab3},{9332e7f4-c292-4480-af81-dacc89da5a87},45.53613847701360000000,-122.86884873388500000000
Sites.401,POINT (-122.43402429379393 45.50243913185406),115180 Gresham Town Fair,"NW Eastman Pkwy. &, NW Division St.",Gresham,OR,97030,,618852,63,{128c9d7e-1ac6-88ba-12e6-127badcce781},,45.50243913185400000000,-122.43402429379300000000
Sites.284,POINT (-122.41025591360582 45.499812842660944),Oregon Trail Center,NE Burnside Rd. & NE Hogan Dr.,Gresham,OR,97030,,432152,37,{8a19543f-4548-4578-898d-f797e062ba6b},,45.49981284266090000000,-122.41025591360500000000
Sites.358,POINT (-122.62668414241664 45.44331087679099),Milwaukie Marketplace,Hwy. 224 & SE Oak St.,Milwaukie,OR,97222,,388535,49,{23c305b2-2cb9-462a-8cfa-9605072f8360},,45.44331087679090000000,-122.62668414241600000000
Sites.437,POINT (-122.5725304529265 45.43188495939166),Clackamas Promenade ,Sunnyside Rd. & I-205,Clackamas,OR,97015,,658554,37,{bd39f6f8-2e27-4f65-8dbe-a1b72db5f64d},,45.43188495939160000000,-122.57253045292600000000
Sites.604,POINT (-93.4442861569456 45.09631473946275),Arbor Lakes Retail Center,Elm Creek Blvd & Main St. N,Maple Grove,MN,55369,,1164490,64,{ffb726bc-8227-4dd6-a0a6-46f763c5a3c2},{9332e7f4-c292-4480-af81-dacc89da5a87},45.09631473946270000000,-93.44428615694560000000
Sites.523,POINT (-93.42520052861387 45.09105677725852),The Fountains at Arbor Lakes,I-94 & Hemlock Lane N.,Maple Grove,MN,55369,,1083998,52,{cd6aa3e7-a3c9-43f2-a5f5-08fbdebd6d16},,45.09105677725850000000,-93.42520052861380000000
Sites.385,POINT (-93.23409649882973 45.00449341868726),2807,1520 New Brighton Blvd,Minneapolis,MN,55413,,272777,43,{004690e5-3288-4499-8c9e-9433ba14f58e},,45.00449341868720000000,-93.23409649882970000000
Sites.491,POINT (-93.45646826316876 44.97254267224956),105520 - Ridgedale Festival Center,Wayzata Blvd.& I-394,Minnetonka,MN,55305,,238342,46,{1cd398ae-23b5-34ed-28ad-ff98be37882d},,44.97254267224950000000,-93.45646826316870000000
Sites.353,POINT (-92.7247629549214 44.958208462964535),4935,2330 Crest View Dr.,Hudson,WI,54016,,230585,63,{e2a226f1-44c1-4745-832c-c5b5a582a2f2},{9b4a0617-081d-4cb9-89ce-f5a31ccd9a61},44.95820846296450000000,-92.72476295492140000000
Sites.305,POINT (-89.66896033762113 44.95066737789984),4931,2705 Sherman St,Wausau,WI,54401,,248347,38,{ab72bc9e-23be-bd0c-ac34-1287ba92bb29},,44.95066737789980000000,-89.66896033762110000000
Sites.101,POINT (-122.98278376019569 44.91296221202148),4006,Southeast Mill Creek,Salem,OR,97317,,308313,,{ffbbe0ec-7dce-41cf-b028-879bf371a9f9},,44.91296221202140000000,-122.98278376019500000000
Sites.15,POINT (-91.43235293299995 44.77383237300006),40 - Eau Claire,4090 Commonwealth Ave,Eau Claire,WI,54701,,124852,,{20EE8EEF-D6BB-487A-AE81-1CF8C4DE3415},,44.77383237300000000000,-91.43235293299990000000
Sites.314,POINT (-93.41180935450312 44.773359098183),2841,1701 Co Rd 18,Shakopee,MN,55379,,288076,58,{07666608-ddd9-4362-bd0a-37a8e57cbfb0},{9b4a0617-081d-4cb9-89ce-f5a31ccd9a61},44.77335909818300000000,-93.41180935450310000000
Sites.393,POINT (-93.19953911577949 44.73010639445175),2833,15101 Flagstaff Ave. ,Apple Valley,MN,55124,,313052,54,{c0a22c34-2e59-4f0e-bcc9-ba4ee6ab6b37},,44.73010639445170000000,-93.19953911577940000000
Sites.526,POINT (-63.671768240515625 44.65675027871153),The Home Depot Store 7126,386 Lacewood Dr.,Halifax,NS,B3S1L8,,210913,52,{9c771604-b662-468a-ae4e-bcae6f31379b},{9b4a0617-081d-4cb9-89ce-f5a31ccd9a61},44.65675027871150000000,-63.67176824051560000000
Sites.100,POINT (-68.3986544770825 44.528182636559016),The Home Depot - Store 2408,56 Myrick St,Ellsworth,ME,4605,,323054,,{26b3bb95-5d9f-4c3b-a820-864ef130b0de},,44.52818263655900000000,-68.39865447708250000000
Sites.143,POINT (-71.80405356907077 44.29706500957453),8539,859 Meadow St. ,Littleton,NH,3561,,254049,70,{e70a295e-fd49-4903-9446-7150f80a8aed},,44.29706500957450000000,-71.80405356907070000000
Sites.251,POINT (-85.40863430768712 44.28373713277452),2752,3786 S Mackinaw Trail,Cadillac,MI,49601,,287999,67,{6132dfc3-b206-45b7-a4d4-85a277289e5a},,44.28373713277450000000,-85.40863430768710000000
Sites.190,POINT (-84.2298920264448 44.25163195987802),2782,2892 Cook Rd.,West Branch,MI,48661,,277892,64,{02a8a0bd-c819-4d35-9d8c-ca3fd4e1a804},,44.25163195987800000000,-84.22989202644480000000
Sites.264,POINT (-88.3614274037518 44.24210421339131),4928,2201 S Kensington Dr Ave,Appleton,WI,54915,,284941,72,{86951141-2a22-4849-b7da-33dabdbadc85},,44.24210421339130000000,-88.36142740375180000000
Sites.454,POINT (-92.50576090787892 44.08085318024484),Fazoli's - Rochester,5550 US-52,Rochester,MN,55901,,26860,15,{8c45a096-bcbe-4eb1-83fc-83926d2c208b},,44.08085318024480000000,-92.50576090787890000000
Sites.623,POINT (-71.11484158518988 44.02831106489067),3407,53 Barnes Rd.,North Conway,NH,3860,,279593,69,{4d29d64d-8715-4c0f-b361-3fa52ef826c6},{9b4a0617-081d-4cb9-89ce-f5a31ccd9a61},44.02831106489060000000,-71.11484158518980000000
Sites.529,POINT (-79.44627019458659 44.00712790167372),7135,15360 Bayview Ave,Aurora,ON,,,276610,25,{be4a9de7-500d-46dc-aa82-6b04053638c4},{9b4a0617-081d-4cb9-89ce-f5a31ccd9a61},44.00712790167370000000,-79.44627019458650000000
Sites.179,POINT (-75.94369159791505 43.986109960057036),6174,391 College Heights,Watertown,NY,13601,,304947,41,{bab60761-601b-4b47-8523-535ab63295d4},,43.98610996005700000000,-75.94369159791500000000
Sites.178,POINT (-75.94369159791505 43.986109960057036),6174,391 College Heights,Watertown,NY,13601,,,,{74825a8d-751e-449a-8870-a2916e34fd45},,43.98610996005700000000,-75.94369159791500000000
Sites.616,POINT (-78.84561847822685 43.94348386130594),7123,1481 Harmony Rd N,Oshawa,ON,71H7K5,,315548,36,{a6a0b021-b886-451a-bad5-1598c12d17fb},{9b4a0617-081d-4cb9-89ce-f5a31ccd9a61},43.94348386130590000000,-78.84561847822680000000
Sites.159,POINT (-69.98027235600694 43.933440937521326),2410,154 Topsham Fair Mall Rd,Topsham,ME,4086,,318298,95,{31bd6fa5-6bf3-4640-9534-c35ee36c2706},,43.93344093752130000000,-69.98027235600690000000
Sites.572,POINT (-78.70958413332389 43.91113082237255),Store 7240,120 Clarington Blvd,Bowmanville,ON,L1C0C3,,195188,54,{5b825cfe-7a7a-440c-8b30-109be09910b1},{9b4a0617-081d-4cb9-89ce-f5a31ccd9a61},43.91113082237250000000,-78.70958413332380000000
Sites.548,POINT (-79.29736511832753 43.76304565817755),Store 7001,428 Ellesmere Road,Scarborough,ON,M1R 4E6,,294690,27,{b25b17c5-b350-4251-ad4c-8d4a8d1fd461},{9b4a0617-081d-4cb9-89ce-f5a31ccd9a61},43.76304565817750000000,-79.29736511832750000000
Sites.186,POINT (-84.24058830865779 43.663289213401704),2747,1100 Joe Mann Blvd,Midland,MI,48642,,294305,94,{b08f42d6-83a2-41c1-bb45-c8c91952a4b6},,43.66328921340170000000,-84.24058830865770000000
Sites.19,POINT (-72.32850098416155 43.62265767506442),3406,296 N Plainfield Rd,West Lebanon,NH,3184,,321878,65,{93ae9fab-5fd9-43b4-b996-ad58db102abf},{9b4a0617-081d-4cb9-89ce-f5a31ccd9a61},43.62265767506440000000,-72.32850098416150000000
Sites.335,POINT (-84.73635971044475 43.61004716628053),2732,5650 E Pickard Rd,Mt Pleasant ,MI,48858,,294591,5,{ca0cad55-a238-4f4d-9fc9-3a4478357164},,43.61004716628050000000,-84.73635971044470000000
Sites.472,POINT (-88.18514494167795 43.399420811754496),4925,700 W Paradise Dr,West Bend,WI,53095,,209710,74,{e56f8c2c-a4e2-4119-bf15-ef061ebac9bc},{9b4a0617-081d-4cb9-89ce-f5a31ccd9a61},43.39942081175440000000,-88.18514494167790000000
Sites.160,POINT (-72.31003300226399 43.359782157108796),3408,451 Washington St.,Claremont,NH,3743,,310449,69,{2782dbc4-5a29-49ac-ab9c-66610c77df00},,43.35978215710870000000,-72.31003300226390000000
Sites.108,POINT (-73.67652348525982 43.33360952410737),6160,"1323, 820 US-9",Queensbury ,NY,12804,,269040,89,{3344cde5-d507-4895-ac0c-275cdafe5cfb},,43.33360952410730000000,-73.67652348525980000000
Sites.145,POINT (-73.67652348525982 43.33360952410737),6160,"1323, 820 US-9",Queensbury ,NY,12804,,269040,89,{4238524d-9f10-486a-9198-b223c64d31e5},,43.33360952410730000000,-73.67652348525980000000
Sites.614,POINT (-70.9929435340997 43.30894553932493),3489,280 N Main St,Rochester,NH,3867,,256648,41,{904c1821-d06b-4550-931e-7c5ef5ddc1d7},{9b4a0617-081d-4cb9-89ce-f5a31ccd9a61},43.30894553932490000000,-70.99294353409970000000
Sites.106,POINT (-77.58722003404034 43.196366497926135),The Home Depot Store 1248,601 South Sprain Rd,Yonkers,NY,10710,,259311,39,{61abee31-ae65-4268-8662-01713738bd5c},,43.19636649792610000000,-77.58722003404030000000
Sites.218,POINT (-70.79527454262956 43.08648968820567),3409,100 Arthur F Brady Dr.,Portsmouth,NH,3801,,267687,60,{2bd86fee-ca09-4bc5-88d0-d24140765f02},{9b4a0617-081d-4cb9-89ce-f5a31ccd9a61},43.08648968820560000000,-70.79527454262950000000
Sites.213,POINT (-86.21769948984857 43.06564308463454),HD 2780,900 Jackson St.,Grand Haven,MI,49417,,291379,76,{dfeb10f2-14d7-422d-9cac-ee96933dcd09},,43.06564308463450000000,-86.21769948984850000000
Sites.352,POINT (-83.32320303083266 43.04571201579688),2736,1500 Summit Dr,Lapeer,MI,48446,,286788,77,{3577b22d-883e-4ca5-882d-e38f643ec971},{9b4a0617-081d-4cb9-89ce-f5a31ccd9a61},43.04571201579680000000,-83.32320303083260000000
Sites.629,POINT (-71.45990959559559 43.04336668321453),3403,"Home Depot, 300 Quality Dr",Hooksett,NH,3106,,313423,73,{fef83690-564f-4f6b-bbeb-6fe632236ccf},,43.04336668321450000000,-71.45990959559550000000
Sites.582,POINT (-81.25688255831928 43.035688491936334),7009,600 Fanshawe Park Rd. E.,London,ON,,,296487,30,{cb21c5cb-0dca-4ccd-92c3-94a3bdfd45cf},{9b4a0617-081d-4cb9-89ce-f5a31ccd9a61},43.03568849193630000000,-81.25688255831920000000
Sites.365,POINT (-84.12236249379923 42.99932335615998),2772,2205 East M21,Owosso,MI,48867,,253791,80,{31ea2ab4-7bc2-4840-acb4-27ea7d4bd276},,42.99932335615990000000,-84.12236249379920000000
Sites.625,POINT (-81.2834571495926 42.93758356211184),7033,3035 Wonderland Rd S,London,ON,N6L 1R4,,262380,37,{4871ddaa-66e0-403e-94a1-fc39bb14e124},{9b4a0617-081d-4cb9-89ce-f5a31ccd9a61},42.93758356211180000000,-81.28345714959260000000
Sites.373,POINT (-85.67048999058646 42.86787979372023),2761,257 54th St SW,Wyoming,MI,49548,,357712,92,{fa184ec4-5c55-437e-8d76-67bae81cd617},,42.86787979372020000000,-85.67048999058640000000
Sites.117,POINT (-71.10921211113278 42.82644886007615),The Home Depot - Store 3487,58 Plaistwow Rd,Plaistow,NH,3865,,477970,,{7bfdca16-11a1-4fd1-8e89-e4cb6ea43b08},,42.82644886007610000000,-71.10921211113270000000
Sites.115,POINT (-71.10921211113278 42.82644886007615),The Home Depot - Store 3487,58 Plaistwow Rd,Plaistow,NH,3865,,477970,70,{7bfdca16-11a1-4fd1-8e89-e4cb6ea43b08},,42.82644886007610000000,-71.10921211113270000000
Sites.119,POINT (-71.10921211113278 42.82644886007615),The Home Depot - Store 3487,58 Plaistwow Rd,Plaistow,NH,3865,,238985,70,{5afdca16-17a1-4fd1-8e89-e4cb6ea43b08},,42.82644886007610000000,-71.10921211113270000000
Sites.398,POINT (-71.22051700408359 42.76627422757046),Rockingham Plaza,Rte. 28 & Rockingham Blvd.,Salem,NH,3079,,793558,47,{606f9c0c-54d2-489a-bfc7-ee8635e10d5e},,42.76627422757040000000,-71.22051700408350000000
Sites.196,POINT (-83.2472603257061 42.74316271067358),2743,2600 S Lapeer Rd,Lake Orion,MI,48360,,243446,38,{25ad3d24-6bc2-4640-acd4-27fa7debba76},,42.74316271067350000000,-83.24726032570610000000
Sites.490,POINT (-71.43854602219993 42.70807957445341),Webster Square,Daniel Webster Hwy & Danford Rd.,Nashua,NH,3060,,381367,64,{1301d3b5-c921-484c-9dac-45a99100e8d0},{9332e7f4-c292-4480-af81-dacc89da5a87},42.70807957445340000000,-71.43854602219990000000
Sites.467,POINT (-71.43939309181266 42.70761834074203),Webster Square,Daniel Webster Hwy. & Danford Rd.,Nashua,NH,3060,,393377,47,{19b3bebc-7105-486e-9ab7-36502d497d79},{9332e7f4-c292-4480-af81-dacc89da5a87},42.70761834074200000000,-71.43939309181260000000
Sites.32,POINT (-83.29882409099997 42.70668626200006),449 Auburn Hills,300 Brown Road,Auburn,MI,48326,,111597,19,{89A0627A-8476-45F3-B04C-4343764AA6C7},,42.70668626200000000000,-83.29882409099990000000
Sites.632,POINT (-71.43784150834861 42.705023375047446),3481,288 Daniel Webster Hwy,Nashua,NH,3060,,241738,28,{6e2a8b00-33db-4cf9-8071-020ecea5856f},{9b4a0617-081d-4cb9-89ce-f5a31ccd9a61},42.70502337504740000000,-71.43784150834860000000
Sites.109,POINT (-73.84822016135412 42.69821313991476),1241,161 R Washington Ave Ext ,Albany,NY,12205,,230793,,{349f0270-d8b0-46ac-a24e-3e9a5dea073b},,42.69821313991470000000,-73.84822016135410000000
Sites.192,POINT (-83.88809020000951 42.590592288970925),2751,3330 E Grand River Ave,Howell,MI,48843,,247943,88,{c29f7304-2aa7-4a0c-8b4b-f56607e42779},,42.59059228897090000000,-83.88809020000950000000
Sites.194,POINT (-83.88809020000951 42.590592288970925),2751,3330 E Grand River Ave,Howell,MI,48843,,247608,88,{92847194-4c46-47fd-8bab-f1ace64a0f4b},,42.59059228897090000000,-83.88809020000950000000
Sites.504,POINT (-70.97784148140559 42.56353737582117),2663,92 Newbury St,Danvers,MA,1923,,250225,77,{ad35c007-0a48-4f68-abf0-e2d4386227ad},,42.56353737582110000000,-70.97784148140550000000
Sites.86,POINT (-70.93843471499997 42.553064524000035),,230 Independence Way,Danvers,MA,1923,111016,111016,38,{ED616646-106B-4686-B215-E4E76287AC8C},,42.55306452400000000000,-70.93843471499990000000
Sites.41,POINT (-83.10585062599995 42.52984505200004),Best Buy Oakland Mall 414,32320 John R Rd,Madison Heights,MI,48071,,86408,47,{C88A1B19-5CB5-47DF-85EC-57523742BA7A},,42.52984505200000000000,-83.10585062599990000000
Sites.409,POINT (-71.12531291429323 42.504289768266176),Waashington St. S.C.,Washington St. & Montvale Ave.,Woburn,MA,1801,,223734,57,{af0187f4-e6d3-4d90-a2b7-d884e45d68b0},{9332e7f4-c292-4480-af81-dacc89da5a87},42.50428976826610000000,-71.12531291429320000000
Sites.175,POINT (-83.5206790751719 42.49256120875921),2737,47950 Grand River Ave,Novi,MI,48374,,299664,45,{36536366-df8b-4872-9fdb-8f567934848a},,42.49256120875920000000,-83.52067907517190000000
Sites.413,POINT (-70.8992736009004 42.48561273211854),"117350 - Paradise Plaza
",Paradise Rd. & Vinnin St.,Salem,MA,1970,,126876,44,{d2390ef2-1e7f-45ac-bc82-650ac4aaec3e},{9332e7f4-c292-4480-af81-dacc89da5a87},42.48561273211850000000,-70.89927360090040000000
Sites.399,POINT (-70.90153454876938 42.481288219899845),Vinnin Square Plaza,Paradise Rd. & Vinnin St.,Swampscott,MA,1907,,165861,57,{9d9edfe8-3eef-46ee-a3ed-d6664d97ea26},{9332e7f4-c292-4480-af81-dacc89da5a87},42.48128821989980000000,-70.90153454876930000000
Sites.163,POINT (-79.3135530009597 42.45769324418206),6169,3901 Vineyard Dr,Dunkirk,NY,14048,,249552,87,{a12fbffb-f157-4955-a32f-838d03e7b0db},,42.45769324418200000000,-79.31355300095970000000
Sites.379,POINT (-92.33498666308897 42.454374714090974),2101,1050 Southtown Dr.,Waterloo,IA,50702,,360027,82,{b746a3a5-30a8-4efd-8897-e5f787c52887},{9b4a0617-081d-4cb9-89ce-f5a31ccd9a61},42.45437471409090000000,-92.33498666308890000000
Sites.188,POINT (-85.66386166102318 42.45130285926193),2771,1227 M-89,Plainwell,MI,49080,,233993,82,{934a5542-b000-4809-b8fa-cac00ab05285},,42.45130285926190000000,-85.66386166102310000000
Sites.137,POINT (-75.06046563774169 42.44552455243111),6173,659 NY-28,Oneonta,NY,13820,,221509,38,{a364c1ea-7b89-4c02-aa49-1e183c67cf1a},,42.44552455243110000000,-75.06046563774160000000
Sites.189,POINT (-83.16952545055517 42.42908013030258),2781,18700 Meyers Rd,Detroit,MI,48235,,277231,51,{6bd3206a-368d-4ae2-a6aa-56672f7ef0ea},,42.42908013030250000000,-83.16952545055510000000
Sites.377,POINT (-71.04718301834741 42.414995949390004),Glendale Square,Ferry St. & Broadway,Everett,MA,2149,,57414,54,{81cbb53a-2918-453b-a7b8-bebb4614fb4c},{9b4a0617-081d-4cb9-89ce-f5a31ccd9a61},42.41499594939000000000,-71.04718301834740000000
Sites.302,POINT (-71.08356353872897 42.40668549260657),117240 Fellsway @ 630,Fellsway & Mystic Valley Pkwy,Medford,MA,2155,,131740,49,{ab71c53e-49d6-4452-9162-839912ba5b28},,42.40668549260650000000,-71.08356353872890000000
Sites.628,POINT (-71.02465460270432 42.403844287208585),8979,1100 Revere Beach Pkwy,Chelsea,MA,2150,,205483,39,{da8f8639-af06-436a-9542-84add65642ef},,42.40384428720850000000,-71.02465460270430000000
Sites.540,POINT (-71.26729496971525 42.39326592557032),2674,100 First Avenue,Waltham,MA,2451,,323607,61,{cca123f7-2b8d-4585-8992-4de5234c8d22},,42.39326592557030000000,-71.26729496971520000000
Sites.195,POINT (-83.51344538209841 42.3930435764834),2762,47725 Five Mile Rd,Plymouth,MI,48170,,282697,93,{698f3d98-abcb-4d16-81fe-7a25664b2954},,42.39304357648340000000,-83.51344538209840000000
Sites.167,POINT (-88.06386694613369 42.385251865733714),8431,2050 N Illinois 83,Round Lake Beach,IL,60073,,273335,21,{b7799e92-ce8a-4c35-912a-6e10d244414b},,42.38525186573370000000,-88.06386694613360000000
Sites.191,POINT (-83.32841299640666 42.3809839429296),2742,13500 Middlebelt Rd,Livonia,MI,48150,,362664,87,{86f7a9f3-bbe3-42fe-9744-9f9664f3b1b0},,42.38098394292960000000,-83.32841299640660000000
Sites.383,POINT (-71.22328617146464 42.37875391425304),117280 Linden Plaza,Linden St & Main St,Waltham,MA,2452,,87405,34,{b238a1ba-5d89-2b02-ad29-1e183c63b8fa},,42.37875391425300000000,-71.22328617146460000000
Sites.349,POINT (-89.02342718894414 42.36749795609352),1956,1580 West Lane Rd.,Machesney Park,IL,61115,,285833,92,{d2aec7a0-2cab-43fc-b896-600bed7b463d},{9b4a0617-081d-4cb9-89ce-f5a31ccd9a61},42.36749795609350000000,-89.02342718894410000000
Sites.113,POINT (-88.16541213853742 42.36241724227522),1944,2731 Hartigan Rd,Ingleside,IL,60041,,254743,40,{42d42e3d-098b-47fc-89e4-ec8ad13b378d},,42.36241724227520000000,-88.16541213853740000000
Sites.116,POINT (-88.27016493755804 42.36212717158659),1969,2461 N Richmond Rd,McHenry,IL,60051,,327537,39,{c13f4824-635b-4f17-8203-997e367c5446},,42.36212717158650000000,-88.27016493755800000000
Sites.613,POINT (-72.55203496279309 42.35960312375066),8452,350 Russell St,Hadley,MA,1035,,278243,42,{49360a26-57ab-4f27-8c53-b3b0dbe15be6},{9b4a0617-081d-4cb9-89ce-f5a31ccd9a61},42.35960312375060000000,-72.55203496279300000000
Sites.139,POINT (-88.04667328492252 42.285797466860856),3981,3200 W Illinois-60,Mundelein,IL,60060,,251777,93,{e24e738a-28e5-426d-8ab7-c92002b89503},,42.28579746686080000000,-88.04667328492250000000
Sites.390,POINT (-71.40833668767087 42.27782416548499),"117400 - Waverly Plaza
",Waverly St. & Beaver St.,Framingham,MA,1072,,102173,80,{d8ad276d-9a95-4bb4-ac36-c9e1e23ee85b},{9332e7f4-c292-4480-af81-dacc89da5a87},42.27782416548490000000,-71.40833668767080000000
Sites.3,POINT (-71.83218602599999 42.247168155000054),Mill Street Plaza,,,,,,175367,,{732B7A16-4D8C-462B-896A-4DE009D491D2},,42.24716815500000000000,-71.83218602599990000000
Sites.172,POINT (-73.88889279263485 42.24446210882781),The Home Depot Store 6176,695 Rt 23B,Catskill,NY,12451,,275600,62,{95129764-5185-4b23-99bd-afe3e35033e6},,42.24446210882780000000,-73.88889279263480000000
Sites.471,POINT (-87.94695403683068 42.23801459281809),116870 Hawthorn Hills Square S.C.,Townline Rd. & Milwaukee Ave.,Vernon Hills,IL,60061,,562542,36,{6b4e9b56-7cc3-adf6-72b4-89bef345ced2},,42.23801459281800000000,-87.94695403683060000000
Sites.103,POINT (-88.33810760481255 42.17304161846574),The Home Depot Store 1940,200 S Randall Rd,Algonquin,IL,60102,,287078,44,{c1142708-5a49-46e1-a3da-455fe6081568},,42.17304161846570000000,-88.33810760481250000000
Sites.158,POINT (-88.295703697825 42.10602362456614),1948,251 Springhill Rd,Carpentersville,IL,60110,,241400,53,{29f479cc-5842-455a-9165-876b3cf1993b},,42.10602362456610000000,-88.29570369782500000000
Sites.469,POINT (-87.84609181012912 42.104273570355126),117350 - Plaza Del Prado,Willow Rd & Pfingsten Rd,Glenview,IL,60062,,316724,40,{12b32ef9-ae6b-1b8e-11b7-98b72eb187ce},,42.10427357035510000000,-87.84609181012910000000
Sites.99,POINT (-79.28897302959243 42.0945892690526),6154,935 Fairmount Ave,Jamestown,NY,14701,,246068,,{1dbb3177-da04-470a-b3d7-20eac2ee4f5c},,42.09458926905260000000,-79.28897302959240000000
Sites.91,POINT (-79.28897302959243 42.0945892690526),6154,935 Fairmount Ave,Jamestown,NY,14701,,246068,16,{1dbb3177-da04-470a-b3d7-20eac2ee4f5c},,42.09458926905260000000,-79.28897302959240000000
Sites.406,POINT (-87.74594140515055 42.052609355719284),"108540 - Skokie Pointe
",9445 Skokie Blvd,Skokie,IL,60077,,120856,37,{75407b4b-1f9a-439b-98dd-8819f285ac75},{9332e7f4-c292-4480-af81-dacc89da5a87},42.05260935571920000000,-87.74594140515050000000
Sites.120,POINT (-87.84184458042935 42.040993493552364),1981,8662 Dempster St,Niles,IL,60714,,216926,35,{668e7901-1646-4d3d-9205-1ca40d4b5972},,42.04099349355230000000,-87.84184458042930000000
Sites.364,POINT (-93.61225389542827 42.03258593312513),Mary Greeley Hospital,1111 Duff Avenue,Ames,IA,50010,,143766,92,{87dbfcc7-e693-4953-9aa2-516983bd3f93},,42.03258593312510000000,-93.61225389542820000000
Sites.592,POINT (-71.23268784458149 42.02287064216507),Store 2609,390 West St,Mansfield,MA,2048,,382940,57,{f64a8185-1e59-406a-b91f-e4932e9ca855},{9b4a0617-081d-4cb9-89ce-f5a31ccd9a61},42.02287064216500000000,-71.23268784458140000000
Sites.584,POINT (-88.04670007101511 42.00932517729598),6701,600 Meacham Rd,Elk Grove Village,IL,60007,,233127,71,{35987dc4-370e-44fd-984a-cb20460a85c5},,42.00932517729590000000,-88.04670007101510000000
Sites.537,POINT (-88.34317743004428 41.982443710694085),6923,440 S Randall Rd, South Elgin,IL,60177,,250937,31,{63eb18ef-0378-43ac-897e-f82ff1b49bb9},,41.98244371069400000000,-88.34317743004420000000
Sites.380,POINT (-85.65027841112422 41.9304092346727),2785,1301 S US HWY 131,Three rivers,MI,49093,,243617,71,{6514b00c-ada1-4de1-ba8b-9e01157b407c},{9b4a0617-081d-4cb9-89ce-f5a31ccd9a61},41.93040923467270000000,-85.65027841112420000000
Sites.134,POINT (-80.74599780472735 41.879441971791366),3838,3200 Market Pl Dr ,Ashtabula,OH,44004,,334118,46,{61ccd0bd-23b0-4405-94b6-4aaf10134a4a},,41.87944197179130000000,-80.74599780472730000000
Sites.107,POINT (-71.06447348903022 41.877378655840275),2677,899 County Street,taunton,MA,2780,,305549,,{ba6a0c0d-1adf-492c-8e04-b10143a44bee},,41.87737865584020000000,-71.06447348903020000000
Sites.590,POINT (-71.52009635144128 41.874762466511385),4282,371 Putnam Pike,Smithfield,RI,2917,,388537,47,{c2e00b6c-86da-434a-8183-a7f6e7117c00},,41.87476246651130000000,-71.52009635144120000000
Sites.622,POINT (-88.34255210144852 41.85715180236408),Wind POint Shopping Center,Randall Rd. & McKee St.,Batabia ,IL,60510,,626456,39,{a1de3235-d3c6-4be1-8657-a02579badf59},{9332e7f4-c292-4480-af81-dacc89da5a87},41.85715180236400000000,-88.34255210144850000000
Sites.332,POINT (-87.74168376263587 41.841185858381756),1911,2803 S Cicero Ave,Cicero,IL,60804,,300540,51,{0698f6b9-cb8e-41f7-82c3-c71d357e0f62},{9b4a0617-081d-4cb9-89ce-f5a31ccd9a61},41.84118585838170000000,-87.74168376263580000000
Sites.250,POINT (-73.06862881799736 41.82244115936566),Store 12345,123 Test Drive,Test City,XX,12345,,,,{b0eb47a4-cbdd-46a1-9776-1aa899fb47c8},{a2ad89c9-1117-415d-9f07-4dc4b59213ed},41.82244115936560000000,-73.06862881799730000000
Sites.334,POINT (-73.06862881799736 41.82244115936566),Store 12345,123 Test Drive,Test City,XX,12345,,245490,67,{a118da7d-d03d-452e-b255-0b7eb39a9456},,41.82244115936560000000,-73.06862881799730000000
Sites.451,POINT (-73.06862881799736 41.82244115936566),Store 12345,123 Test Drive,Test City,XX,12345,,245490,67,{3865fff4-7586-425c-9d6d-2f6208a8c5a6},,41.82244115936560000000,-73.06862881799730000000
Sites.110,POINT (-73.06862881799736 41.82244115936566),TEST,TEST,TEST,TE,12345,,245490,67,{8194364b-d3d9-4749-a123-d78ce1577c49},,41.82244115936560000000,-73.06862881799730000000
Sites.152,POINT (-73.06862881799736 41.82244115936566),12345,123 Test Drive,Test City,XX,12345,,245490,67,{50ebbfa8-e421-4ea3-8d17-c04df150f671},,41.82244115936560000000,-73.06862881799730000000
Sites.125,POINT (-73.06862881799736 41.82244115936566),TEST,TEST,TEST,TE,12345,,245490,67,{c0183cf0-8bff-4022-9ec9-e6401603a626},,41.82244115936560000000,-73.06862881799730000000
Sites.133,POINT (-73.06862881799736 41.82244115936566),TEST,TEST,TEST,TE,12345,,245490,67,{79aad1db-4aba-4dc6-a7ea-a585d7fb5dbe},,41.82244115936560000000,-73.06862881799730000000
Sites.147,POINT (-73.06862881799736 41.82244115936566),12345,123 Test Drive,Test City,CT,12345,,245490,67,{42c3c6eb-8859-448d-b6d9-21f4cc23a692},,41.82244115936560000000,-73.06862881799730000000
Sites.98,POINT (-73.06854518656189 41.82217286142202),6218,1580 Litchfield Turnpike,New Hartford,CT,6057,,245490,,{95d33e09-5d66-4d59-91f6-dba8be3ac91e},,41.82217286142200000000,-73.06854518656180000000
Sites.339,POINT (-90.22971221577035 41.81750528162179),2113,1850 Lincoln Way,Clinton,IA,52732,,279576,79,{0f2fe45a-d23b-4255-ba1c-898901a7d5cc},,41.81750528162170000000,-90.22971221577030000000
Sites.274,POINT (-71.50151133208571 41.81606574081841),4286,100 Stone Hill Rd,Johnston,RI,2919,,259298,95,{b36b3107-fc93-4d61-b0d5-b0b74fb3541b},{9b4a0617-081d-4cb9-89ce-f5a31ccd9a61},41.81606574081840000000,-71.50151133208570000000
Sites.169,POINT (-72.71119525222237 41.81377396734476),The Home Depot Store 6228,55 Granby St,Bloomfield,CT,6002,,310958,34,{4acfca25-11a1-4fd1-8e79-e4cb5ad43c07},,41.81377396734470000000,-72.71119525222230000000
Sites.130,POINT (-87.68301303632244 41.810497004923164),1986,4555 S Western Blvd,Chicago,IL,60609,,206570,95,{3cf45a76-af87-4f36-8f33-bee5111325b4},,41.81049700492310000000,-87.68301303632240000000
Sites.124,POINT (-87.86979945840035 41.781221540875165),1983,140 Countryside Plaza,Countryside,IL,60525,,230608,59,{5f4f339e-f800-4f65-a469-50691c31a936},,41.78122154087510000000,-87.86979945840030000000
Sites.578,POINT (-73.92967223155127 41.726542803117106),Store 1266,3470 North Rd.,Poughkeepsie,NY,12601,,289148,47,{b3734441-eba6-4b54-b22a-c5bdb711c91b},{9b4a0617-081d-4cb9-89ce-f5a31ccd9a61},41.72654280311710000000,-73.92967223155120000000
Sites.501,POINT (-83.56759003476134 41.719719021160536),3848,1035 W Alexis Rd,Toledo,OH,43612,,282586,94,{2c32df31-0baf-4b47-86f6-43cd08b7bcae},,41.71971902116050000000,-83.56759003476130000000
Sites.277,POINT (-86.18151288931743 41.71177835888732),2033,317 Indian Ridge Blvd,Mishawaka,IN,46545,,228741,58,{00fe8011-70bd-4b47-b97e-ffa400b43776},{9b4a0617-081d-4cb9-89ce-f5a31ccd9a61},41.71177835888730000000,-86.18151288931740000000
Sites.171,POINT (-87.78179574122461 41.70990934142949),1935,300 Commons Dr,Chicago Ridge,IL,60415,,609666,15,{ca6ffb2b-6ff6-4300-89b9-2f1b0306ce62},,41.70990934142940000000,-87.78179574122460000000
Sites.135,POINT (-88.32065348160818 41.69471409914352),THD - Store 1975,3080 Route 34,Oswego,IL,60543,,391419,32,{5178f308-18ae-43d7-8149-8c8f631824e6},,41.69471409914350000000,-88.32065348160810000000
Sites.2,POINT (-69.99487634899998 41.683720135000044),,,,,,,80450,25,{9ABCB874-8EC0-4F6D-A598-4BD2AA6FCC76},,41.68372013500000000000,-69.99487634899990000000
Sites.440,POINT (-70.3045612877872 41.67513464212754),"111140 - Festival at Hyannis S.C.
",1070 Iyannough Rd,Hyannis,MA,2601,,619710,57,{7a7ca8f8-7629-471d-a3fb-724972bed57c},{9332e7f4-c292-4480-af81-dacc89da5a87},41.67513464212750000000,-70.30456128778720000000
Sites.424,POINT (-80.16561212642112 41.618587127453225),4169,18541 Smock Hwy,Meadville,PA,16335,,297167,69,{a44f4d5c-435c-4e1e-aa2e-8246bedab7a5},{9b4a0617-081d-4cb9-89ce-f5a31ccd9a61},41.61858712745320000000,-80.16561212642110000000
Sites.421,POINT (-80.16551090499586 41.618220414119186),4169,18541 Smock HWY,Meadville,PA,16335,,297125,70,{11baec59-423f-4cbb-bdc3-b12d93f44f63},{9b4a0617-081d-4cb9-89ce-f5a31ccd9a61},41.61822041411910000000,-80.16551090499580000000
Sites.441,POINT (-83.68153880068894 41.6152123504197),3801,5900 Airport Hwy,Toledo,OH,43615,,289141,95,{8a4799f4-163c-4c02-b8fb-0a72cce35877},{9b4a0617-081d-4cb9-89ce-f5a31ccd9a61},41.61521235041970000000,-83.68153880068890000000
Sites.93,POINT (-71.98989706328803 41.58636578390475),6221,142 River Rd,Lisbon,CT,6351,,333507,68,{31cf6d24-6be2-4640-afd4-37fa7debbb24},,41.58636578390470000000,-71.98989706328800000000
Sites.111,POINT (-71.98954813187723 41.58635864887363),The Home Depot - Store 6221,142 River Rd,Lisbon,CT,6351,,328828,65,{8188051c-5e19-4057-a9bd-b4146a27688c},,41.58635864887360000000,-71.98954813187720000000
Sites.535,POINT (-71.5020103963436 41.58336167341573),4283,1255 Ten Rod Rd,North Kingstown,RI,2852,,261778,71,{6704b878-3f4b-4647-aefd-0a1b62abf953},,41.58336167341570000000,-71.50201039634360000000
Sites.262,POINT (-109.2686863812102 41.57800401665045),6003,"1925 Foothill Blvd, Rock Springs",Rock Springs,WY,82901,,262126,85,{5f2115ce-4134-4463-9e73-52bd819de6bc},,41.57800401665040000000,-109.26868638121000000000
Sites.354,POINT (-87.63431983888657 41.565303097865474),1936,17845 Halsted St,Homewood,IL,60430,,320275,91,{7dfbdc07-1d1f-4ec3-be3e-8fd9cbd5cb3d},{9b4a0617-081d-4cb9-89ce-f5a31ccd9a61},41.56530309786540000000,-87.63431983888650000000
Sites.483,POINT (-75.22988485648413 41.556162670482266),6956,721 Old Willow Ave ,Honesdale,PA,18431,,590108,25,{30273493-b6ee-41c2-aa55-f1c180eb1bb5},,41.55616267048220000000,-75.22988485648410000000
Sites.105,POINT (-83.57808575370285 41.54210405157864),3858,"9570 Olde, US-20",Rossford,OH,43460,,349367,,{4261332a-47a0-4804-9c4d-f40a4bc1304d},,41.54210405157860000000,-83.57808575370280000000
Sites.347,POINT (-90.51990975287475 41.541495728108096),2111,920 Middle Rd,Bettendorf,IA,52722,,229225,41,{01ab4d94-ae5b-40e8-b4ea-3487e6ed2ad6},{9b4a0617-081d-4cb9-89ce-f5a31ccd9a61},41.54149572810800000000,-90.51990975287470000000
Sites.543,POINT (-88.20152662964861 41.533372250046014),Store 6925,621 Brook Forest Ave,Shorewood,IL,60404,,272019,25,{54bfe22f-c970-4174-ad53-816fd396a1d3},{9b4a0617-081d-4cb9-89ce-f5a31ccd9a61},41.53337225004600000000,-88.20152662964860000000
Sites.243,POINT (-71.30067016039858 41.527085179610275),4287,878 W Main Rd,Middletown,RI,2842,,222286,61,{4276502c-1a14-34bd-a2d7-cdf01eba0218},,41.52708517961020000000,-71.30067016039850000000
Sites.71,POINT (-83.74911062699994 41.50878821800006),Kroger Columbus - 521,8730 Waterville Swanton Rd,Waterville,OH,43566,,431388,52,{7F7FC1A1-0C6A-4EBA-8295-E4C43AF7C6EF},,41.50878821800000000000,-83.74911062699990000000
Sites.304,POINT (-82.01725785259262 41.461889220083236),3835,35930 Detroit Rd,Avon,OH,44011,,294096,51,{5fcb7520-be9c-4967-acc9-e6a9e63c65a9},{9b4a0617-081d-4cb9-89ce-f5a31ccd9a61},41.46188922008320000000,-82.01725785259260000000
Sites.464,POINT (-82.67715625094924 41.420459481446244),Burger King,3911 Milan Rd.,Sandusky,OH,44870,,40106,17,{54384922-d62a-4387-9e58-17fe94e9a729},{4cbb436a-068d-41f3-a012-b41c20110e48},41.42045948144620000000,-82.67715625094920000000
Sites.165,POINT (-82.66532315293314 41.40330789243651),3866,715 Crossings Rd,Sandusky,OH,44870,,290017,95,{aac4eb48-4ff5-4f3d-85ca-862183e907d6},,41.40330789243650000000,-82.66532315293310000000
Sites.170,POINT (-82.10709387098076 41.38732750269282),3827,150 Market Dr,Elyria,OH,44035,,336046,72,{313260da-8f4b-4668-8ff5-c6fe05957770},,41.38732750269280000000,-82.10709387098070000000
Sites.503,POINT (-81.78173598062494 41.38125050780516),Burger King - Parma Heights,6671 Pearl Rd,Parma Heights,OH,44130,,18110,16,{7f66279a-35f9-4fd8-9f28-f141d73aa7ae},,41.38125050780510000000,-81.78173598062490000000
Sites.506,POINT (-81.78173598062494 41.38125050780516),Burger King - Parma Heights,6671 Pearl Rd,Parma Heights,OH,44130,,18110,16,{7f77279a-35f9-4fd8-9f28-f141d73aa7ae},,41.38125050780510000000,-81.78173598062490000000
Sites.261,POINT (-85.08636340069758 41.364323688104925),2024,403 Smaltz Way,Auburn,IN,46706,,277485,93,{2830319b-df42-4a2b-8984-7bf8a9450c7b},,41.36432368810490000000,-85.08636340069750000000
Sites.461,POINT (-81.68407329901595 41.357139350017924),Burger King - Seven Hills,7677 Broadview Rd,Seven Hills,OH,44131,,19296,10,{6ee53b5a-8066-4f23-b10a-ffd1aca8074a},,41.35713935001790000000,-81.68407329901590000000
Sites.518,POINT (-81.68407329901595 41.357139350017924),Burger King - Seven Hills,7677 Broadview Rd,Seven Hills,OH,44131,,19296,1,{6ff53b5a-8066-4f23-b10a-ffd1aca8074a},,41.35713935001790000000,-81.68407329901590000000
Sites.114,POINT (-83.64827471972475 41.35342535898498),3864,1169 S Main St.,Bowling Green,OH,43402,,245087,94,{cb71fcdd-5c54-4cdf-a071-219d00a02de0},,41.35342535898490000000,-83.64827471972470000000
Sites.430,POINT (-79.72276609984368 41.35039454179486),4178,6874 US-322,Franklin,PA,16323,,343781,88,{f1e1f94d-1b60-4b68-92bf-7693bc204273},{9b4a0617-081d-4cb9-89ce-f5a31ccd9a61},41.35039454179480000000,-79.72276609984360000000
Sites.96,POINT (-73.08566698921348 41.32103142834745),6226,"Home Depot, 117 Main St",Derby,CT,6418,,187912,66,{02b8253a-708d-4f2e-9708-5f3090a0e107},,41.32103142834740000000,-73.08566698921340000000
Sites.168,POINT (-95.98661792877479 41.251362885303664),Dillons - 319,888 S Saddle Creek Rd,Omaha,NE,68106,,116783,44,{8ab750fb-90ea-4ec1-a664-567849d73955},,41.25136288530360000000,-95.98661792877470000000
Sites.259,POINT (-95.84601442942372 41.23022017255341),2109,3101 Manawa Centre Dr,Council Bluffs,IA,51501,,367000,58,{14e6b5da-5061-4498-8269-1a13edcaf288},,41.23022017255340000000,-95.84601442942370000000
Sites.138,POINT (-73.24159871784143 41.158510529303925),6206,541 Kings Hwy Cutoff,Fairfield,CT,6824,,170953,65,{89e0cb2b-30d9-420a-9765-e7cf8ade779e},,41.15851052930390000000,-73.24159871784140000000
Sites.270,POINT (-111.97447235383046 41.0660825478984),8583,449 N Main St.,Layton,UT,84041,,268333,96,{9b688607-8194-4dfa-abe4-b1b8635a00fa},{9b4a0617-081d-4cb9-89ce-f5a31ccd9a61},41.06608254789840000000,-111.97447235383000000000
Sites.157,POINT (-81.72742456720275 41.05405672953208),3882,1155 High St,Wadsworth,OH,44281,,222247,84,{e4bdce31-eb45-413c-af01-99a02494ca63},,41.05405672953200000000,-81.72742456720270000000
Sites.412,POINT (-74.04122908747279 41.00100595439691),"117230 - Plaza at Hillsdale
","Washington Ave. & Broadway, Hillsdale, NJ, 7642
",Hillsdale,NJ,7642,,144188,47,{1695ba2e-c20c-4246-9c43-42c9f80ffdd2},{9332e7f4-c292-4480-af81-dacc89da5a87},41.00100595439690000000,-74.04122908747270000000
Sites.142,POINT (-73.86164944150292 40.97450062515719),,601 Sprain Rd,Yonkers,NY,10710,,109207,85,{ebf151f1-681a-4c2c-ac29-c729b54e36f2},,40.97450062515710000000,-73.86164944150290000000
Sites.29,POINT (-72.31587388799994 40.934160646000066),Bridgehampton Commons,2044 Montauk Hwy ,Bridgehampton,NY,11932,,,64,{0B78185C-0EC6-4DB0-9ED5-65F68908F02E},,40.93416064600000000000,-72.31587388799990000000
Sites.95,POINT (-72.6974918005751 40.92800707286425),1222,1550 Old Country Rd,Riverhead,NY,11901,,309176,82,{5282d02d-7c63-4c6a-af6c-94c9f5c06839},,40.92800707286420000000,-72.69749180057510000000
Sites.92,POINT (-72.6974918005751 40.92800707286425),1222,1550 Old Country Rd,Riverhead,NY,11901,,309176,,{5282d02d-7c63-4c6a-af6c-94c9f5c06839},,40.92800707286420000000,-72.69749180057510000000
Sites.102,POINT (-80.81742421775536 40.90389154022983),3877,2900 E State St, Salem,OH,44460,,266666,,{8a81052c-3fd6-4baf-9ab6-b44227970205},,40.90389154022980000000,-80.81742421775530000000
Sites.567,POINT (-74.25248775520576 40.886662827690174),Willowbrook Plaza,Willowbrook Blvd. & I-23,Wayne,NJ,7470,,446097,44,{f8862bc4-da8e-480c-bccb-431a47bdbcaf},{9332e7f4-c292-4480-af81-dacc89da5a87},40.88666282769010000000,-74.25248775520570000000
Sites.422,POINT (-72.53681708319863 40.876308040432605),103540 Hampton Bays Plaza,"Montauk Hwy. &, Riverhead-Hampton Bays Rd.",Hampton Bays,NY,11946,,214132,69,{64bea15c-a6bd-89ef-23fc-8934bbd2af61},,40.87630804043260000000,-72.53681708319860000000
Sites.416,POINT (-72.53700201931925 40.876254686312095),Hampton Bays Plaza,Montauk Hwy & Riverhead Bays Rd.,Hampton Bays,NY,11946,,230192,55,{b94ff322-f9c6-422d-8a83-30359eaee8d8},{9332e7f4-c292-4480-af81-dacc89da5a87},40.87625468631200000000,-72.53700201931920000000
Sites.414,POINT (-72.53659976899712 40.87587770420341),"103540 - Hampton Bays Plaza
",180 Montauk Hwy,Hampton Bays,NY,11946,,214133,56,{72a71842-ff88-4a08-b1d6-5a70f74a925c},{9332e7f4-c292-4480-af81-dacc89da5a87},40.87587770420340000000,-72.53659976899710000000
Sites.359,POINT (-72.99750958272391 40.86834818272362),1229,346 Middle Country Rd,Coram,NY,11727,,337546,39,{df4af53e-d3d6-4452-9162-83993dce5b28},,40.86834818272360000000,-72.99750958272390000000
Sites.475,POINT (-73.63146395493024 40.86718331955552),North Shore Triangle,School St. & Highland Rd.,Glen Cove,NY,11542,,56739,88,{9ef8d689-69cb-4710-b85b-0a96c9d88f1a},{9332e7f4-c292-4480-af81-dacc89da5a87},40.86718331955550000000,-73.63146395493020000000
Sites.447,POINT (-73.05171604864704 40.865064883956165),Independence Plaza,Middle Country Rd. & Boyle Rd. ,Selden,NY,11784,,661007,60,{752469e9-002e-4442-b11e-c505a90dc4fe},,40.86506488395610000000,-73.05171604864700000000
Sites.539,POINT (-73.13046958782584 40.86119937376248),Smithtown Plaza,Middle Country Road & Moriches Road,Nesconset,NY,11767,,180901,73,{f08aaff3-b1d8-4952-bbf4-92627b50f4ff},{9332e7f4-c292-4480-af81-dacc89da5a87},40.86119937376240000000,-73.13046958782580000000
Sites.97,POINT (-74.3218088433813 40.86051409115318),Store 965,"79 US-46, Montville", Montville,NJ,7045,,241383,56,{8e78a66c-9f10-4ef0-99c5-3984e23066e1},,40.86051409115310000000,-74.32180884338130000000
Sites.549,POINT (-73.28725103948331 40.8432522249889),115990 - Birchwood Plaza,2187 Jericho Turnpike,Commack,NY,11725,,80073,58,{2223bf6f-ac09-4ae4-b95b-94b549a81f8b},{9332e7f4-c292-4480-af81-dacc89da5a87},40.84325222498890000000,-73.28725103948330000000
Sites.449,POINT (-73.28550485221992 40.8391021643557),Veterans Memorial Plaza,Veterans Memorial Hwy & Sunken Meadow State Pkwy.,Commack,NY,11725,,879755,55,{fb4987c2-3d0e-4da0-a7d7-947afe066793},,40.83910216435570000000,-73.28550485221990000000
Sites.462,POINT (-73.3833652187298 40.83502747643181),"116600 - Turnpike Plaza
",717 E Jericho Turnpike,Huntington Station,NY,11746,,134441,34,{bd45ff7e-e836-4212-bd67-0aab1b7f185a},{9332e7f4-c292-4480-af81-dacc89da5a87},40.83502747643180000000,-73.38336521872980000000
Sites.470,POINT (-73.50086217900466 40.8241376630126),Kimco - 101090 Syosset S.C.,"Ira Rd. & Jackson Ave., Syosset, NY, 11791",Syosset,NY,11791,,59601,51,{1b8c99fa-12be-12e8-ff2c-82bc77ade981},,40.82413766301260000000,-73.50086217900460000000
Sites.636,POINT (-73.98299350622771 40.81280873474893),"113750 - Edgewater Commons
",New River Rd.,Edgewater,NJ,7020,,861420,29,{8ad86f74-e03f-4085-a842-0ca0c804867b},{9332e7f4-c292-4480-af81-dacc89da5a87},40.81280873474890000000,-73.98299350622770000000
Sites.378,POINT (-73.51084588973792 40.811166191574415),8466,111 Jericho Tpke,Syosset,NY,11791,,203676,69,{a35d128e-196d-4b43-9a90-014d2a53e8b7},,40.81116619157440000000,-73.51084588973790000000
Sites.174,POINT (-81.48849990272652 40.80030679858211),3860,2406 Lincoln Way E,Massillon,OH,44646,,290506,27,{4f913ef1-e60c-4d81-bb34-e0a85d87d280},,40.80030679858210000000,-81.48849990272650000000
Sites.460,POINT (-73.67010302848071 40.797720604824754),"100200 - Munsey Park Plaza
",2101 Northern Blvd,Manhasset,NY,11030,,175552,43,{e38a8c54-74e4-46ed-ba3a-0f4fd9d5d376},{9332e7f4-c292-4480-af81-dacc89da5a87},40.79772060482470000000,-73.67010302848070000000
Sites.492,POINT (-73.69489943261617 40.79220806940967),Manhasset Center,Northern Blvd & Shelter Rock Rd.,Manhasset ,NY,11030,,214253,65,{497870ac-53c9-4bf0-8d25-db72be675696},,40.79220806940960000000,-73.69489943261610000000
Sites.514,POINT (-73.53498938526452 40.79146561916137),Jericho Commons North,N. Broadway & Market St.,Jericho,NY,12571,,97966,63,{00281b97-4bdd-4816-bed4-2fc2b4f44db1},,40.79146561916130000000,-73.53498938526450000000
Sites.534,POINT (-73.5361694788828 40.7909451419249),Jericho Commons - 115950,N. Broadway & Market St.,Jericho,NY,11753,,28503,61,{c15a49f6-6a57-499f-bd9c-fc53acb3c4b3},,40.79094514192490000000,-73.53616947888280000000
Sites.426,POINT (-73.5349579203656 40.79071081811967),Jericho Atrium,500 North Broadway,Jericho,NY,11753,,239010,61,{6f62c8d4-cd85-4aa8-b26d-c956ed74a743},{9332e7f4-c292-4480-af81-dacc89da5a87},40.79071081811960000000,-73.53495792036560000000
Sites.465,POINT (-73.53494464863584 40.789455129071186),Jericho Commons South,N. Broadway & Market St.,Jericho,NY,11753,,184454,60,{9a761819-8097-4475-b46f-1e992f49a12d},,40.78945512907110000000,-73.53494464863580000000
Sites.601,POINT (-73.47423052716339 40.785275605122706),Manetto Hill Plaza,Manetto Hill Rd. & Country Dr.,Plainview,NY,11803,,220329,47,{152286fc-2951-4e8c-bcfa-9c79ce65270b},,40.78527560512270000000,-73.47423052716330000000
Sites.161,POINT (-72.86305088426504 40.78048476518046),,399 William Floyd Pkwy,Shirley,NY,11967,,217606,60,{db7f9fd0-0085-4a84-8c34-8c0ac3039383},,40.78048476518040000000,-72.86305088426500000000
Sites.408,POINT (-73.52888916326509 40.777652034624424),Hicksville Plaza,N. Broadway Rte. 106/107 & Nevada St.,Hicksville,NY,11801,,81603,92,{ac630fad-d964-418b-b633-aaaa59c3cc60},{9332e7f4-c292-4480-af81-dacc89da5a87},40.77765203462440000000,-73.52888916326500000000
Sites.118,POINT (-89.67228846050253 40.77354047070117),1978,5026 West Holiday Drive ,Peoria,IL,61615,,246603,28,{c9a48d48-c344-4ece-9281-95330a364eb0},,40.77354047070110000000,-89.67228846050250000000
Sites.450,POINT (-73.72594448245314 40.76484652720306),"110170 - Little Neck Plaza
",25427 Horace Harding Expy,Queens,NY,11362,,85743,39,{ce588eac-6e73-4d2c-8b82-c245c1f5242d},{9332e7f4-c292-4480-af81-dacc89da5a87},40.76484652720300000000,-73.72594448245310000000
Sites.267,POINT (-86.31063223726939 40.75906895071946),2023,4120 E Market St.,Logansport,IN,46947,,240175,90,{61941cdf-4f15-4744-a4b6-4fb002c37e96},{9b4a0617-081d-4cb9-89ce-f5a31ccd9a61},40.75906895071940000000,-86.31063223726930000000
Sites.435,POINT (-73.62366877681758 40.75577698056634),"115910 - Mineola Crossings
",330 E Jericho Turnpike,Mineola,NY,11501,,58076,33,{41f59cf2-e488-4ad9-8d52-93adfd64a362},{9332e7f4-c292-4480-af81-dacc89da5a87},40.75577698056630000000,-73.62366877681750000000
Sites.27,POINT (-73.81802356399999 40.75038662500003),Kissena,46-31 Kissena Blvd,Queens,NY,11355,,41228,60,{BE3516C9-740D-4C85-A769-32DF94E20C57},,40.75038662500000000000,-73.81802356399990000000
Sites.484,POINT (-73.23684878084137 40.74023734194966),113570 Market at Bay Shore,"Sunrise Hwy. & Brentwood Rd., Bay Shore, NY, 11706",Bay Shore,NY,11706,,439830,84,{1b8e99fe-19ce-adb7-eea9-125d97efadc3},,40.74023734194960000000,-73.23684878084130000000
Sites.35,POINT (-73.89679272199999 40.72447671500004),Grand Plaza,56 Grand Ave,Maspeth,NY,11378,,25802,36,{9EFEF66D-13A5-4511-B9D4-39CC1178BF0A},,40.72447671500000000000,-73.89679272199990000000
Sites.438,POINT (-74.33432725418855 40.722238855127095),Plaza at short hillsq,Morris Tpke & Broad St.,Millburn ,NJ,7078,,371310,60,{cd9f7fda-fd02-4389-8f11-f278f5c7a8cd},{9332e7f4-c292-4480-af81-dacc89da5a87},40.72223885512700000000,-74.33432725418850000000
Sites.25,POINT (-73.81414909399996 40.718915829000025),Family Dollar Union Turnpike,Union Tpke,Queens,NY,11367,,2482,45,{9414B1CE-F1C7-4465-BA5F-BD87BEFF0B42},,40.71891582900000000000,-73.81414909399990000000
Sites.73,POINT (-82.54852605999997 40.718522128000075),Kroger Columbus - 836,1500 Lexington Ave,Mansfield,OH,44907,,203709,,{C164A6D3-32C9-458B-85C5-07D294EBD662},,40.71852212800000000000,-82.54852605999990000000
Sites.559,POINT (-74.28713066390003 40.71704983480651),Union Crescent Plaza,Springfield Ave. & Vauxhall rd.,Union ,NJ,7083,,41609,44,{a0be3a18-482b-4a93-89ef-5a107d8ace4f},{9332e7f4-c292-4480-af81-dacc89da5a87},40.71704983480650000000,-74.28713066390000000000
Sites.555,POINT (-74.28674887909514 40.71701764431063),Union Crescent Plaza,Springfield Avenue & Vauxhall Rd. ,Union,NJ,7088,,125289,32,{2a3dff0c-3884-4825-9614-f175d47cbe2e},{9332e7f4-c292-4480-af81-dacc89da5a87},40.71701764431060000000,-74.28674887909510000000
Sites.575,POINT (-74.28621770737213 40.7165575067007),Union Crescent Plaza,Springfield Ave. & Vauxhall rd.,Union,NJ,7083,,66567,23,{c6bee03d-2d03-4f02-aebd-a0b711349155},{9332e7f4-c292-4480-af81-dacc89da5a87},40.71655750670070000000,-74.28621770737210000000
Sites.452,POINT (-74.28560313591582 40.71610544264258),Union Crescent Plaza,Springfield Ave. & Vauxhall Rd.,Union,NJ,7088,,498666,36,{52e76cdb-79a5-4c43-b20f-f853fb72ae34},{9332e7f4-c292-4480-af81-dacc89da5a87},40.71610544264250000000,-74.28560313591580000000
Sites.249,POINT (-73.85819951925335 40.70881048660121),1220,75-09 Woodhaven Blvd,Queens,NY,11385,,239830,92,{75fbbf0c-51cb-4910-944c-35037ef99a93},,40.70881048660120000000,-73.85819951925330000000
Sites.403,POINT (-73.69407260621904 40.70672534793685),111320 - Elmont S.C.,Hempstead Tpke. & Hill Ave,Elmont,NY,11003,,42232,93,{5554ce31-5d96-4ca4-8479-1a1ba2d5bfc7},{9332e7f4-c292-4480-af81-dacc89da5a87},40.70672534793680000000,-73.69407260621900000000
Sites.307,POINT (-80.10023426906281 40.69157167906218),4135,25 Dutilh Rd,Cranberry Twp,PA,16066,,312475,94,{3a31f7ce-a949-4367-a5e5-2f977ef83edc},{9b4a0617-081d-4cb9-89ce-f5a31ccd9a61},40.69157167906210000000,-80.10023426906280000000
Sites.487,POINT (-73.47914282491153 40.69110413121344),"111380 - North Massapequa S.C.
",4250 Jerusalem Ave,North Massapequa,NY,11758,,43302,67,{5f47b220-458a-4a27-8f42-0bdae64ce19c},{9332e7f4-c292-4480-af81-dacc89da5a87},40.69110413121340000000,-73.47914282491150000000
Sites.507,POINT (-73.68618592761466 40.689437473480076),Franklin Square SC,Midway Ct & Franklin Ave,Franklin Square,NY,11010,,32279,36,{af6955d7-eb23-43e9-b280-fac4d481b326},{9332e7f4-c292-4480-af81-dacc89da5a87},40.68943747348000000000,-73.68618592761460000000
Sites.577,POINT (-73.40692419336868 40.688017060058066),105450 - Home Depot Plaza - Copiague,1101 Sunrise Hwy,Copiague,NY,11726,,374300,47,{573eebf7-782c-4cbd-b7ce-8a4bd4254255},,40.68801706005800000000,-73.40692419336860000000
Sites.530,POINT (-80.081844638038 40.68790092220436),Cranberry Commons,Rte. 228 & Kristoffer Dr.,Pittsburgh,PA,16066,,1006447,37,{6379e535-83b5-4dec-90a9-7d8c3f1565e6},,40.68790092220430000000,-80.08184463803800000000
Sites.423,POINT (-75.2483175825409 40.67910558472946),4173,721 S 25th St,Easton,PA,18045,,328200,68,{b843e939-2682-4b35-901d-baec460eeafa},{9b4a0617-081d-4cb9-89ce-f5a31ccd9a61},40.67910558472940000000,-75.24831758254090000000
Sites.466,POINT (-80.09742360538566 40.67256170053902),Max & Erma,936 Sheraton Dr.,Mars,PA,16046,,45393,9,{b75273fe-17da-47dd-9518-d73486115acf},{4cbb436a-068d-41f3-a012-b41c20110e48},40.67256170053900000000,-80.09742360538560000000
Sites.456,POINT (-73.53637741662862 40.66133387519217),111350 Bellmore S.C.,Merrick Rd. & Ocean Ave.,Bellmore,NY,11710,,36745,59,{1b82de8f-1ad7-223b-778d-8c7de652ade4},,40.66133387519210000000,-73.53637741662860000000
Sites.33,POINT (-73.57178957199994 40.65656779500006),Meadowbrook Commons,210 Sunrise Hwy,Freeport,NY,11520,,189684,,{E7068DA7-9E03-420D-9D6A-715AEE505FE7},,40.65656779500000000000,-73.57178957199990000000
Sites.245,POINT (-73.86823528334119 40.653181219275645),6152,579 Gateway Dr,Brooklyn,NY,11239,,226815,89,{b247cfc5-15fd-4591-a743-583b1b001521},,40.65318121927560000000,-73.86823528334110000000
Sites.512,POINT (-73.55961808339327 40.65309491310947),Merrick Commons,Merrick Rd. & Chernucha Ave,Merrick,NY,11566,,202582,42,{1be7476e-e215-4111-848f-e8dca91cb2d3},{9332e7f4-c292-4480-af81-dacc89da5a87},40.65309491310940000000,-73.55961808339320000000
Sites.166,POINT (-74.32025043339077 40.652564827454285),6903,200 South Ave,Garwood,NJ,7027,,88432,78,{f529fc09-b507-4a1a-b4a9-8d7ebbc5d315},,40.65256482745420000000,-74.32025043339070000000
Sites.77,POINT (-76.53084943299996 40.64734975600004),Truist Bank - Valley View,"702 W Main St, Valley View, PA 17983",Valley View,PA,17983,11837,11837,58,{7CD8EAF2-D0DA-4107-9281-2FEE772BBF61},,40.64734975600000000000,-76.53084943299990000000
Sites.626,POINT (-74.3098597202906 40.63107526982993),"117120 - Central Plaza
",Central Ave. & Raritan Rd,Clark,NJ,7066,,112279,59,{a709cdf1-e045-4f03-b62e-841e49e4d247},{9332e7f4-c292-4480-af81-dacc89da5a87},40.63107526982990000000,-74.30985972029060000000
Sites.8,POINT (-103.23868437993934 40.626211028907086),1545,1614 W Main St,Sterling,CO,80751,,222402,31,{bd7c4eb3-852c-471c-8838-a10bd7b61be2},,40.62621102890700000000,-103.23868437993900000000
Sites.457,POINT (-74.1394173931002 40.62371585957832),113430 Forest Avenue Plaza,Forest Ave. & Riegelman St.,Staten Island,NY,10306,,134606,52,{1c9e772c-ad56-b289-ffe8-adbe8892c8d7},,40.62371585957830000000,-74.13941739310020000000
Sites.51,POINT (-73.91733136014548 40.62263051944953),111310 Ralph Avenue Plaza,2265 Ralph Ave,Brooklyn,NY,11234,,38315,23,{85D0630F-DE02-4337-BE34-8B5B1F4F37C0},,40.62263051944950000000,-73.91733136014540000000
Sites.510,POINT (-80.05336046712944 40.613489809178816),115660 - Wexford Plaza,10576 Perry Hwy,Wexford,PA,15090,,411309,32,{0a074756-4a5e-43e9-bba1-c8404b1586e7},{9332e7f4-c292-4480-af81-dacc89da5a87},40.61348980917880000000,-80.05336046712940000000
Sites.136,POINT (-74.08390122843785 40.61299952415411),6150,545 Targee St,Staten Island,NY,10304,,169227,82,{a88b37b7-4aba-405b-8e48-ca6ee490ca5d},,40.61299952415410000000,-74.08390122843780000000
Sites.228,POINT (-73.91642904582835 40.61225040793388),6158,5700 Avenue U,Brooklyn,NY,11234,,125057,71,{ee833e43-88a7-41b5-a05a-32d2b2cb03dc},,40.61225040793380000000,-73.91642904582830000000
Sites.26,POINT (-73.91635250699994 40.612185897000074),Mill Street Basin,Avenue U & E. 55th St.,NY,NY,11234,,125438,54,{80F99A32-BEBD-4974-AAE8-1D570C13E4DB},,40.61218589700000000000,-73.91635250699990000000
Sites.293,POINT (-79.94509688754871 40.60322712309971),4152,4960 William Flinn Hwy,Allison Park,PA,15101,,332742,82,{568b8a4c-2b41-45ae-9eaf-5513eeb813b2},,40.60322712309970000000,-79.94509688754870000000
Sites.104,POINT (-73.98836719777394 40.58152357185662),1256,2970 Cropsey Ave, Brooklyn,NY,11214,,261040,92,{d837767c-2b62-47c7-8e8a-abf551f3f945},,40.58152357185660000000,-73.98836719777390000000
Sites.286,POINT (-74.16826604494223 40.57486890449807),Richmond S.C.,Richmond Ave. & Yukon Ave.,Staten Island,NY,10314,,371235,50,{d31adceb-f074-45bb-b814-3033d01ba393},,40.57486890449800000000,-74.16826604494220000000
Sites.463,POINT (-74.11075752511475 40.56657077349428),The Boulevard,Hylan Blvd. & Beach Ave.,Staten Island,NY,10306,,463927,93,{95c9ecd2-68a6-48b2-9e44-e8f04c487d1e},{9332e7f4-c292-4480-af81-dacc89da5a87},40.56657077349420000000,-74.11075752511470000000
Sites.480,POINT (-74.55675779776479 40.561655205596544),Bridgewater Promenade,"Rte. 28 & I-287, Bridgewater",Bridgewater,NJ,8805,,437802,42,{1be8ce73-12be-78ac-2d7f-fe12b73edf9a},,40.56165520559650000000,-74.55675779776470000000
Sites.455,POINT (-74.16831243448794 40.560110299336024),"106740 - Greenridge Plaza
",3275 Richmond Ave,Staten Island,NY,10312,,171407,36,{39f145b7-a857-4527-89e8-a43000ed252b},{9332e7f4-c292-4480-af81-dacc89da5a87},40.56011029933600000000,-74.16831243448790000000
Sites.495,POINT (-74.44296636648414 40.551862992809745),"105580 - Piscataway Town Center
",1306 Centennial Ave,Piscataway,NJ,8854,,219033,54,{7a5f0ccf-9a05-4bd6-99c7-d3d8d6dfa384},{9332e7f4-c292-4480-af81-dacc89da5a87},40.55186299280970000000,-74.44296636648410000000
Sites.256,POINT (-80.0115142633599 40.54506062557806),4159,999 Ross Park Mall Dr,Pittsburgh,PA,15237,,271653,63,{fca708ca-d855-40eb-938f-9e3e0346a6f2},,40.54506062557800000000,-80.01151426335990000000
Sites.521,POINT (-88.9546943650524 40.52383388195615),6987,795 Veterans Pkwy,Normal,IL,61761,,220932,73,{71eb6d5d-6679-4b0c-bc6f-43be2c1c62ac},,40.52383388195610000000,-88.95469436505240000000
Sites.146,POINT (-74.48958459306014 40.518092569997975),Somerset,1135 Easton Ave.,Somerset,NJ,8873,,138420,70,{5b771eb5-017d-4d5a-97ba-dc9f750c85f8},,40.51809256999790000000,-74.48958459306010000000
Sites.496,POINT (-74.62712864098609 40.51671891170393),Hillsborough Promenade,Rte. 206 & Falcon Rd.,Hillsborough,NJ,8844,,1441823,44,{9ee34204-c2c8-4f5e-b1e3-441c691fa653},,40.51671891170390000000,-74.62712864098600000000
Sites.382,POINT (-111.98239171025438 40.510383505893685),8566,3852 13400 S.,Riverton,UT,84065,,262297,36,{b1505718-4b38-4b8e-85fe-8fa314ef43c4},{9b4a0617-081d-4cb9-89ce-f5a31ccd9a61},40.51038350589360000000,-111.98239171025400000000
Sites.482,POINT (-74.46669908372247 40.461228056552265),North Brunswick Plaza,Wayzata Blvd.& I-394,Minnetonka,MN,55305,,777312,46,{5d781301-05f6-47de-9983-12a625fff139},,40.46122805655220000000,-74.46669908372240000000
Sites.621,POINT (-74.14466374256892 40.413910794671146),"110070 - Holmdel Towne Center
",2101 NJ-35,Holmdel,NJ,7733,,816706,77,{671d1185-8e7b-4ad9-bc6f-b6e80f52f479},{9332e7f4-c292-4480-af81-dacc89da5a87},40.41391079467110000000,-74.14466374256890000000
Sites.402,POINT (-74.14512826171213 40.4112769679224),Commons at Holmdel,Rte. 35 & Laurel Ave.,Holmdel,NJ,7733,,687031,58,{4439c042-bd12-4c17-9966-4a49f87199f0},,40.41127696792240000000,-74.14512826171210000000
Sites.122,POINT (-74.5664073334034 40.39416484868861),6917,4095 US-1,Monmouth Junction,NJ,8852,,227657,64,{e82f1156-5937-4c2c-8781-f393861f03cb},,40.39416484868860000000,-74.56640733340340000000
Sites.248,POINT (-75.84816180512068 40.29625840654382),4164,5410 Perkiomen Ave,Reading,PA,19606,,267014,31,{fe7f9572-38a1-45ba-8402-06ffc3e0f349},,40.29625840654380000000,-75.84816180512060000000
Sites.162,POINT (-74.76093705949881 40.243539258900846),976,1621 N Olden Ave,Ewing Township,NJ,8638,,285223,56,{ec787bf0-8892-4b2c-9050-ff582661c81a},,40.24353925890080000000,-74.76093705949880000000
Sites.181,POINT (-92.58405043195006 40.225540384354986),3036,3015 N Baltimore St,Kirksville,MO,63501,,216319,71,{1accc005-77eb-40c7-8d0b-fd67c2c8c219},,40.22554038435490000000,-92.58405043195000000000
Sites.309,POINT (-77.18976311527533 40.18546381827542),4149,1013 S Hanover St.,Carlisle,PA,17013,,259137,77,{d6a59d62-85c7-46f5-8f4e-33fd5d4bd937},{9b4a0617-081d-4cb9-89ce-f5a31ccd9a61},40.18546381827540000000,-77.18976311527530000000
Sites.81,POINT (-75.13361505199998 40.181966438000075),Horsham Point,Horsham Rd. & Dresher Rd,Horsham,PA,19044,,216160,,{8C45ED06-FF89-4917-AE9D-8D8FFCF35078},,40.18196643800000000000,-75.13361505199990000000
Sites.331,POINT (-82.91979261034744 40.147577891260056),3825,6017 Maxtown Rd,Westerville,OH,43082,,306614,8,{95e9aa44-ea7c-4e40-a066-ab5004a242c9},,40.14757789126000000000,-82.91979261034740000000
Sites.234,POINT (-75.40057309749037 40.12880276831929),4145,600 S Trooper Rd,Norristown,PA,19403,,285216,52,{9615c507-3290-446e-bb27-2ac426fc3b86},,40.12880276831920000000,-75.40057309749030000000
Sites.94,POINT (-82.42451183788364 40.083470595748544),Store 3887,1330 N 21st Street,Newark,OH,43055,,287733,,{bc16d438-e547-402f-a71a-61769b2cc208},,40.08347059574850000000,-82.42451183788360000000
Sites.28,POINT (-75.05865039999998 40.05134743000008),"Cottman and Bustleton Center
","7400 Bustleton Ave
","Philadelphia
",PA,19149,,318679,,{7B5403B7-71C4-4ABC-9794-CE9A3F2B2C3D},,40.05134743000000000000,-75.05865039999990000000
Sites.10,POINT (-85.9896649101727 40.04750432261152),2017,3300 Conner St.,Noblesville,IN,46060,,318508,35,{cb6bd94b-a156-43a9-8f56-8d3e2ede1650},{9b4a0617-081d-4cb9-89ce-f5a31ccd9a61},40.04750432261150000000,-85.98966491017270000000
Sites.144,POINT (-83.12164292402805 40.03582104650116),3872,4101 Trueman Blvd,Hilliard,OH,43026,,227899,87,{2eda2078-e36a-4e64-9fd0-7f09403a409b},,40.03582104650110000000,-83.12164292402800000000
Sites.315,POINT (-86.90144155008315 40.015768340164726),8918,1710 US-231,Crawfordsville,IN,47933,,254065,63,{867fd06a-e14b-43ed-b753-d58c952796cb},,40.01576834016470000000,-86.90144155008310000000
Sites.253,POINT (-75.09117819533176 39.9922953147912),4150,2539 Castor Ave,Philadelphia,PA,19134,,255997,56,{49a97b9d-2b4f-462e-960d-d0706d948552},,39.99229531479120000000,-75.09117819533170000000
Sites.242,POINT (-75.93673983011705 39.98145627306326),8955,500 Commons Dr,Parkesburg,PA,19365L,,391097,48,{b1a5f5fe-05ff-43d5-a8b1-cf0524b88438},,39.98145627306320000000,-75.93673983011700000000
Sites.233,POINT (-76.66915976621627 39.977308011030686),4125,2905 E Market St.,East York,PA,17402,,348979,57,{3d6840cd-af43-400a-b731-3b9f14b480a7},,39.97730801103060000000,-76.66915976621620000000
Sites.176,POINT (-83.82968730886067 39.94967865589326),3867,1880 N Bechtle Ave,Springfield,OH,45504,,274962,50,{54bcced3-e915-428b-a9ee-746fe683810c},,39.94967865589320000000,-83.82968730886060000000
Sites.221,POINT (-75.03876483829723 39.92407650600639),989,2160 Rte 70 W,Cherry Hill,NJ,8002,,221257,55,{d02336ef-0717-463a-a552-ebb348a03008},{9b4a0617-081d-4cb9-89ce-f5a31ccd9a61},39.92407650600630000000,-75.03876483829720000000
Sites.573,POINT (-104.81033678417901 39.88731077632424),King Soopers - Reunion - Shared Drivelanes,15051 E 104th Ave, Commerce City,CO,80022,,97995,46,{84d05839-a0c0-494c-a986-51eea572acd2},,39.88731077632420000000,-104.81033678417900000000
Sites.546,POINT (-104.8119482191897 39.88710464839715),King Soopers - Reunion Main,15051 E 104th Ave,Commerce City,CO,80022,,261999,45,{1c13f662-aaab-4637-8c4f-4c7303d3f6bc},{53aac07c-079e-4423-9d3f-ef9500178cdc},39.88710464839710000000,-104.81194821918900000000
Sites.571,POINT (-104.81085191162069 39.88665724691735),King Soopers - Reunion Lot 2,15051 E 104th Ave ,Commerce City,CO,80022,,40283,47,{2bcb64b9-4168-400d-872d-bb65a3f8e546},,39.88665724691730000000,-104.81085191162000000000
Sites.296,POINT (-75.32635734322785 39.88659423765331),4142,300 MacDade BLVD,Folsom,PA,19033,,336346,45,{aff19a6b-3c9b-4c0c-b478-e0d980ea5c6e},{9b4a0617-081d-4cb9-89ce-f5a31ccd9a61},39.88659423765330000000,-75.32635734322780000000
Sites.17,POINT (-104.98898715399997 39.88417296100005),1416 - North Glenn,104 W 104th Ave,Denver,CO,80234,,95867,45,{30045F79-8839-4AE9-BC8D-6EEB645F8207},,39.88417296100000000000,-104.98898715399900000000
Sites.141,POINT (-82.83129248212117 39.8577563357258),3885,6035 Gender Rd,Canal Winchester,OH,43110,,256175,42,{afa1cd86-12de-4991-b75d-53d944df5bf9},,39.85775633572580000000,-82.83129248212110000000
Sites.37,POINT (-75.09319569699994 39.82796269800008),579 Deptford,1851 Deptford Center Rd,Deptford,NJ,80896,138361,138361,72,{CBFD8CBD-8FF8-491F-BF71-157C1F62BB52},,39.82796269800000000000,-75.09319569699990000000
Sites.528,POINT (-76.9813980593035 39.826520148696396),4168,400 W Eisenhower Dr,Hanover,PA,17331,,358420,37,{f6d10f80-cf99-484f-b59b-22f7893921b1},{9b4a0617-081d-4cb9-89ce-f5a31ccd9a61},39.82652014869630000000,-76.98139805930350000000
Sites.608,POINT (-86.00731915043423 39.798549670450285),2011,2225 N Post Rd,Indianapolis,IN,46219,,301867,54,{2b35a6b9-e717-4259-b846-858481352f8e},{9b4a0617-081d-4cb9-89ce-f5a31ccd9a61},39.79854967045020000000,-86.00731915043420000000
Sites.280,POINT (-76.666677143379 39.7743154564342),4177,960 Far Hills Dr,New Freedom,PA,17349,,298257,75,{34b050d9-f68f-4530-908c-9c1f460f6be0},,39.77431545643420000000,-76.66667714337900000000
Sites.199,POINT (-105.0193529192297 39.76886943895291),"West 38th Street S.C.
",2600 W 38th Ave,Denver,CO,80211,,43008,25,{07382c24-9aad-4529-b5fe-76c618493377},,39.76886943895290000000,-105.01935291922900000000
Sites.443,POINT (-75.53238982530712 39.76722132570154),8440,3600 Miller Rd.,Wilmington,DE,19802,,247669,33,{ae3305a6-fc8f-4f5e-8157-f1bdff6bf5b8},{9b4a0617-081d-4cb9-89ce-f5a31ccd9a61},39.76722132570150000000,-75.53238982530710000000
Sites.46,POINT (-105.05488073199996 39.74544698200003),Edgewater Marketplace,1725 Sheridan Blvd,Edgewater,CO,80214,,295866,,{37CA5F19-6A5E-4199-9A9A-578D8C9AB1EA},,39.74544698200000000000,-105.05488073199900000000
Sites.222,POINT (-105.18959973889939 39.72312863062676),1522,16900 W Colfax Ave,Golden,CO,80401,,287034,60,{937d1951-6c4b-43cc-b50b-c643b57e6693},{9b4a0617-081d-4cb9-89ce-f5a31ccd9a61},39.72312863062670000000,-105.18959973889900000000
Sites.532,POINT (-90.25390552662657 39.72136308315942),Store 8430,1601 W Morton Ave,Jacksonville,IL,62650,,235617,97,{72e49a65-a0c7-4c16-b496-bbf991761511},{9b4a0617-081d-4cb9-89ce-f5a31ccd9a61},39.72136308315940000000,-90.25390552662650000000
Sites.420,POINT (-104.86737612299187 39.67422331092492),Village on the Park,S. Parker Rd. & Havana St.,Aurora,CO,80014,,293964,73,{0ca965da-cf3d-4902-8302-17ea70e43567},{9332e7f4-c292-4480-af81-dacc89da5a87},39.67422331092490000000,-104.86737612299100000000
Sites.338,POINT (-104.86848031521018 39.674015000167614),106820 Village on the Park,S. Parker Rd. & Havana St.,Aurora,CO,80014,,317916,72,{76a1cb3d-24a9-410c-9865-e7af8afe783a},,39.67401500016760000000,-104.86848031521000000000
Sites.246,POINT (-104.99229388753074 39.655865283633524),Englewood Plaza,W. Girard Ave. & S. Elati St.,Englewood,CO,80110,,151717,25,{bdab4035-a4ae-4985-a11d-89344df8e6fc},{9332e7f4-c292-4480-af81-dacc89da5a87},39.65586528363350000000,-104.99229388753000000000
Sites.562,POINT (-105.0490596594612 39.65476269255829),1520,3130 S Sheridan Blvd,Denver,CO,80227,,278816,57,{9876cf5a-87bb-eea5-be74-7335bee632cd},,39.65476269255820000000,-105.04905965946100000000
Sites.66,POINT (-104.77616138099995 39.65468951500003),King Soopers - 128,18211 E Hampden Ave,Aurora,CO,80013,,240276,28,{E60EE443-141A-445C-9183-226807B63437},,39.65468951500000000000,-104.77616138099900000000
Sites.327,POINT (-85.97288127200402 39.6524010348141),Acton Elementary,8010 Acton Rd,Indianapolis,IN,46259,,104543,31,{ba21eebc-ccf1-4c9d-ad38-059c343fdb0c},{091cf087-5512-4a66-a8be-cdadaa246d95},39.65240103481410000000,-85.97288127200400000000
Sites.140,POINT (-84.22613445127243 39.64435706552563),3857,345 N Springboro Pike,Dayton,OH,45449,,319102,52,{b22e152c-197d-4c52-9b90-014faf00e8f2},,39.64435706552560000000,-84.22613445127240000000
Sites.386,POINT (-104.82733202535692 39.64142962933924),"106890 - East Bank S.C.
",Parker Rd. & Quincy Rd.,Aurora,CO,80015,,331283,59,{6689e690-cafd-464b-9ebb-0e2f7b2dfb2a},,39.64142962933920000000,-104.82733202535600000000
Sites.212,POINT (-104.79264900761382 39.63973266293259),106850 - Quincy Place SC,"E. Quincy Place &, S. Buckley Rd.",Aurora,CO,80015,,148561,36,{c8b64ca7-31a3-45bc-b0c3-6286e1b6f364},,39.63973266293250000000,-104.79264900761300000000
Sites.479,POINT (-86.12976483872974 39.63733703079574),"101530 - Greenwood S.C.
",8830 US-31,Indianapolis,IN,46227,,565192,2,{90926867-24af-4a87-8360-b7f6229fde82},,39.63733703079570000000,-86.12976483872970000000
Sites.223,POINT (-105.16068336792378 39.63607989380006),1549,4277 S. Eldridge St.,Morrison,CO,80465,,230668,63,{7f36398b-749a-4987-aca1-ea04042bc8dc},{9b4a0617-081d-4cb9-89ce-f5a31ccd9a61},39.63607989380000000000,-105.16068336792300000000
Sites.252,POINT (-86.16195899719463 39.604495636770395),HD 2019,850 S State Rd. 135,Greenwood,IN,46143,,275995,88,{eb69d40b-9b6b-4493-b09a-05cdd6003a86},,39.60449563677030000000,-86.16195899719460000000
Sites.404,POINT (-76.96755650198081 39.563151589417785),2580,835 Market St,Westminster,MD,21157,,320866,61,{13b51f00-03c2-4547-b5f2-89e30ff29d42},,39.56315158941770000000,-76.96755650198080000000
Sites.324,POINT (-119.70406583643083 39.55623628112827),D'Andrea Marketplace,2878 Vista Blvd,Sparks,NV,89434,,304098,71,{04657a74-10b8-492c-835c-ba188547862c},{9332e7f4-c292-4480-af81-dacc89da5a87},39.55623628112820000000,-119.70406583643000000000
Sites.343,POINT (-119.75417870700379 39.55565850961587),Sparks Mercantile,N. McCarran Blvd. & Pyramid Way,Sparks,NV,89431,,278951,40,{1df2fa1f-2c4a-41d9-a3d3-b93af8244541},,39.55565850961580000000,-119.75417870700300000000
Sites.236,POINT (-104.9470000794661 39.542290346915365),116690 Village Center West,"Fairview Pkwy. & Highlands, Ranch Pkwy.",Highlands Ranch,CO,80126,,70128,42,{16832a24-7bcd-4318-c4fd-76c718593878},,39.54229034691530000000,-104.94700007946600000000
Sites.515,POINT (-104.86027281800493 39.54028506482785),Toyota North America Inc. - Denver Regional Office,9676 S Maroon Cir,Englewood,CO,80112,,84217,73,{0c7528ab-bd3b-4295-9367-602085f5f09c},,39.54028506482780000000,-104.86027281800400000000
Sites.516,POINT (-104.86027281800493 39.54028506482785),Toyota North America Inc. - Denver Regional Office,9676 S Maroon Cir,Englewood,CO,80112,,84217,73,{a28becca-60ee-42f9-b211-f45ec973f3a2},,39.54028506482780000000,-104.86027281800400000000
Sites.40,POINT (-104.79085257099996 39.53590985500006),Crossing at Stonegate,17031 Lincoln Ave,Parker,CO,80134,,305706,44,{8410A9CC-7BE5-435B-AB57-DD93CA307024},,39.53590985500000000000,-104.79085257099900000000
Sites.285,POINT (-119.88017883215325 39.527873563204096),McQueen Crossing S.C.,Mae Anne Ave. & Robb Dr.,Reno,NV,89523,,363857,92,{1fda53f2-a26c-4e47-89e6-14f68157cc6b},{9332e7f4-c292-4480-af81-dacc89da5a87},39.52787356320400000000,-119.88017883215300000000
Sites.639,POINT (-76.36133313786422 39.525578550549916),529006,658 Boulton St,Bel Air,MD,21014,,159482,35,{5e44f034-21d2-4934-93ea-b72cec032e32},{9b4a0617-081d-4cb9-89ce-f5a31ccd9a61},39.52557855054990000000,-76.36133313786420000000
Sites.123,POINT (-76.18088220482791 39.52392017544443),2510,979 Beards Hill Rd,Aberdeen,MD,21001,,148020,52,{5b2b164f-b314-4039-9b36-dab3a6c3a9d6},,39.52392017544440000000,-76.18088220482790000000
Sites.561,POINT (-104.76599864756217 39.514051607833856),Home Depot 1516,11111 S. Parker Rd,Parker ,CO,80134,,243364,72,{06b55991-0a88-4d56-a536-b6995821ac64},{9b4a0617-081d-4cb9-89ce-f5a31ccd9a61},39.51405160783380000000,-104.76599864756200000000
Sites.72,POINT (-82.07971101699997 39.48364632500005),Kroger Columbus - 831,19471 Lake Dr,Trimble,OH,45782,,33187,49,{DD25E3DB-AFB0-43AA-A8F4-8FA7BE08A66E},,39.48364632500000000000,-82.07971101699990000000
Sites.599,POINT (-119.78613584580182 39.46998767039694),Del Monte Plaza 113140 ,Del Monte Lane & S. Virginia St.,"Reno,  ",NV,89502,,23060,52,{a8a36704-1b07-4e99-a154-f214e7e3e2f8},,39.46998767039690000000,-119.78613584580100000000
Sites.593,POINT (-119.78657168508184 39.46910021379711),Del Monte Plaza,Del Monte Lane & S. Virginia St,Reno,NV,89502,,239196,32,{aae7a011-10f2-4047-acdd-37ee9439dbf4},,39.46910021379710000000,-119.78657168508100000000
Sites.372,POINT (-76.29265704877848 39.43960779421355),2576,2703 Pulaski Hwk,Edgewood,MD,21040,,364369,95,{383a7777-5c49-4297-b630-467525ecb259},{9b4a0617-081d-4cb9-89ce-f5a31ccd9a61},39.43960779421350000000,-76.29265704877840000000
Sites.392,POINT (-76.94701045604499 39.40929387624519),2581,1326 Londtown Blvd,Eldersburg,MD,21784,,328434,65,[b1c9a72a-12ef-c9a7-ad14-52bce91a87ce},,39.40929387624510000000,-76.94701045604490000000
Sites.325,POINT (-119.76605483800178 39.39426912392792),"116140 - Galena Junction S.C.
",18144 Wedge Pkwy,Reno,NV,89511,,381952,88,{13534ff0-89c5-44d1-9a62-9d5a45bb1439},{9332e7f4-c292-4480-af81-dacc89da5a87},39.39426912392790000000,-119.76605483800100000000
Sites.164,POINT (-76.54268970050254 39.372316817781055),Parkville,7709 Hartford Rd,Baltimore,MD,21234,,326791,29,{9040efc3-b206-44a9-a7d4-85a279289c4c},,39.37231681778100000000,-76.54268970050250000000
Sites.587,POINT (-76.78726687909918 39.3613322794728),Store 6945,8729 Liberty Rd,Randallstown,MD,21133,,185335,82,{02ee6d66-a0ad-4678-9a73-598ad68e1ab0},{9b4a0617-081d-4cb9-89ce-f5a31ccd9a61},39.36133227947280000000,-76.78726687909910000000
Sites.312,POINT (-76.48838972502021 39.33563201572342),2587,6415 Petrie Way Rd.,Rosedale,MD,21237,,319561,67,{66b3626a-f384-48ff-8447-f87e5ff3b21d},,39.33563201572340000000,-76.48838972502020000000
Sites.323,POINT (-120.20650688416933 39.3270437620405),116120 Gateway at Donner Pass,Donner Pass Rd & Frates Ln,Truckee,CA,96161,,246734,47,{7286051a-5b18-4153-b9cd-c5146a12676e},,39.32704376204050000000,-120.20650688416900000000
Sites.276,POINT (-120.20904475403044 39.319389080925745),113280 Truckee Crossroads,I-80 & Hwy 89,Truckee,CA,96161,,226215,42,{4beaca26-15a1-4fd1-7a79-e4cb5bc83c17},,39.31938908092570000000,-120.20904475403000000000
Sites.606,POINT (-81.54663434819473 39.29975559713806),4803,200 Grand Central Ave,Vienna,WV,26105,,175808,33,{77b41734-cb5f-4219-b3d5-a300bdc36f8c},{9b4a0617-081d-4cb9-89ce-f5a31ccd9a61},39.29975559713800000000,-81.54663434819470000000
Sites.319,POINT (-76.67393609495892 39.24783200786612),2579,3750 Commerce Dr.,Halethorpe,MD,21227,,335130,38,{07d2f49a-e56a-4047-ba9d-81def9291868},,39.24783200786610000000,-76.67393609495890000000
Sites.597,POINT (-76.5981607947591 39.19928608171106),Store 2501,E Ordnance Rd,Glen Burnie,MD,21060,,306306,73,{d5c1f20e-ce32-4b7b-b128-3ab1a1f46b3f},{9b4a0617-081d-4cb9-89ce-f5a31ccd9a61},39.19928608171100000000,-76.59816079475910000000
Sites.112,POINT (-75.52883667214266 39.18337631171798),1608,801 N Dupont Hwy,Dover,DE,19901,,168926,71,{841fe2a6-9fcd-4b87-93c6-70eb88454f36},,39.18337631171790000000,-75.52883667214260000000
Sites.70,POINT (-82.97735046099996 39.13357270100005),Kroger Columbus - 363,220 Waverly Plaza,Waverly,OH,45690,,143367,27,{55E8BA73-9DA7-404E-95F8-FD3BC5EC3456},,39.13357270100000000000,-82.97735046099990000000
Sites.177,POINT (-104.85246072826222 39.06385435716052),1541,15888 Jackson Creek Pkwy,Monument,CO,80132,,287202,65,{5b192a71-c920-4fb3-8695-6766f99a2c0f},,39.06385435716050000000,-104.85246072826200000000
Sites.1081,POINT (-104.84272584102274 39.05760718926284),Jackson Creek Crossing,1070 Baptist Rd,Colorado Springs,CO,80921,,255044,65,OBSOLETE,{4949ce6d-5c61-4371-ae93-3cd61bfdd514},39.05760718926280000000,-104.84272584102200000000
Sites.1082,POINT (-104.84272584102274 39.05760718926284),Jackson Creek Crossing,1070 Baptist Rd,Colorado Springs,CO,80921,,255044,65,{875702cc-a846-4ea3-b4ec-2663e6dc2897},{4949ce6d-5c61-4371-ae93-3cd61bfdd514},39.05760718926280000000,-104.84272584102200000000
Sites.59,POINT (-77.11909433499994 39.057605729000045),Pike Center,Rockville Pike and Bou Avenue,Rockville,MD,,,152151,67,{5E6A574E-468D-40C0-B61B-AB119C29CB1E},,39.05760572900000000000,-77.11909433499990000000
Sites.1065,POINT (-74.87029960586086 39.01332944946752),TEST Rio Grande Plaza,"1500 Route 47 South, Rio Grande, NJ",Rio Grande,NJ,8242,,328718,57,{479c2170-b557-4266-a1b1-8be05c452dae},{9b4a0617-081d-4cb9-89ce-f5a31ccd9a61},39.01332944946750000000,-74.87029960586080000000
Sites.1066,POINT (-74.87029960586086 39.01332944946752),TEST Rio Grande Plaza,"1500 Route 47 South, Rio Grande, NJ",Rio Grande,NJ,8242,,,,{fc22318f-a1cc-4d9f-8b21-c59e7a85ab3c},,39.01332944946750000000,-74.87029960586080000000
Sites.1074,POINT (-74.87029960586086 39.01332944946752),Rio Grande Plaza,"1500 Route 47 South, Rio Grande, NJ",Rio Grande,NJ,8242,,328718,57,{1e927151-fe23-475e-a7fb-c98cb9be8e61},{9b4a0617-081d-4cb9-89ce-f5a31ccd9a61},39.01332944946750000000,-74.87029960586080000000
Sites.1079,POINT (-74.87029960586086 39.01332944946752),Rio Grande Plaza TEST,"1500 Route 47 South, Rio Grande, NJ",Rio Grande,NJ,8242,,328718,57,{2fb39acf-f4e0-4b3b-ad80-353b73abc615},{9b4a0617-081d-4cb9-89ce-f5a31ccd9a61},39.01332944946750000000,-74.87029960586080000000
Sites.1080,POINT (-74.87029960586086 39.01332944946752),Rio Grande Plaza TEST,"1500 Route 47 South, Rio Grande, NJ",Rio Grande,NJ,8242,,328718,57,{71402212-79f2-4f6a-918c-9475396e571c},{9b4a0617-081d-4cb9-89ce-f5a31ccd9a61},39.01332944946750000000,-74.87029960586080000000
Sites.641,POINT (-74.87029960586086 39.01332944946752),Rio Grande Plaza,"1500 Route 47 South, Rio Grande, NJ",Rio Grande,NJ,8242,,328718,57,{187549eb-c94e-aa9d-323a-399dfe8ac829},{9b4a0617-081d-4cb9-89ce-f5a31ccd9a61},39.01332944946750000000,-74.87029960586080000000
Sites.417,POINT (-84.41772009996048 39.00587769328521),2323,415 Crossroads Blvd.,Cold Spring,KY,41076,,317341,26,{009d41f3-31fe-4b35-945d-48ffdf110ada},,39.00587769328520000000,-84.41772009996040000000
Sites.263,POINT (-76.54144350139143 38.97807785361509),2589,55 Forest Plaza,Annapolis,MD,21401,,193600,69,{864a5114-2806-46d6-b818-244b28bb3b82},{9b4a0617-081d-4cb9-89ce-f5a31ccd9a61},38.97807785361500000000,-76.54144350139140000000
Sites.395,POINT (-77.35427187766994 38.96848620515127),4641,1651 Reston Pkwy,Reston,VA,20194,,180084,28,{06e09000-8f28-4630-83b0-a516522001a8},{9b4a0617-081d-4cb9-89ce-f5a31ccd9a61},38.96848620515120000000,-77.35427187766990000000
Sites.565,POINT (-85.86134721775228 38.956515431136275),Store 2021,1714 E Tipton St,Seymour,IN,47274,,255400,62,{f9b8c6ce-237c-407b-975a-7376dc388f49},{9b4a0617-081d-4cb9-89ce-f5a31ccd9a61},38.95651543113620000000,-85.86134721775220000000
Sites.39,POINT (-79.84377013999995 38.91848786200006),Kroger 730,450 11th St,Elkins,WV,26241,"103,320",103320,40,{4B50FB71-70C4-40E1-B481-E4CA5AC4BDCE},,38.91848786200000000000,-79.84377013999990000000
Sites.211,POINT (-121.29452444448836 38.87820997201305),"116130 - Lincoln Hills Town Center
",67 Lincoln Blvd,Lincoln,CA,95648,,308774,53,{bdbd4f1f-85ef-465b-8ff0-85f8e1eea68d},,38.87820997201300000000,-121.29452444448800000000
Sites.499,POINT (-82.15287457049556 38.83504537454719),Golden Corral - Gallipolis,304 Upper River Road,Gallipolis,OH,45631,,61138,25,{1d69cf9b-07a8-41c5-8e0c-5630c360ae0b},,38.83504537454710000000,-82.15287457049550000000
Sites.4,POINT (-76.73840550741018 38.818950363925225),8550,15410 Chrysler Dr,Upper Marlboro,MD,20772,,299044,90,{a6a3d0ba-4646-4de9-b1cb-cae0aa0b41f5},,38.81895036392520000000,-76.73840550741010000000
Sites.208,POINT (-121.33041099111935 38.79418326169945),116090 Crocker Ranch,Woodcreek Oaks Blvd & Blue Oaks Blvd,Roseville,ca,95747,,196686,72,{b2487720-5b49-42e1-c3da-454fe6082574},,38.79418326169940000000,-121.33041099111900000000
Sites.229,POINT (-121.26806609048691 38.781867889930815),111550 Stanford Ranch,Stanford Ranch Rd & Hwy 65,Roseville,CA,95678,,550002,60,{377ab751-501a-435b-9cb1-793b3a3f35bd},,38.78186788993080000000,-121.26806609048600000000
Sites.121,POINT (-89.9500111934986 38.780271624903975),1973,2500 Troy Rd,Glen Carbon,IL,62034,,252683,60,{8c5febb4-4f81-4482-8cec-03c3383fa35e},,38.78027162490390000000,-89.95001119349860000000
Sites.596,POINT (-112.10269079429108 38.74814977367503),4422,1440 S Technology Dr,Richfield,UT,84701,,268878,66,{a7558d66-7a3e-474f-983a-2a5f5375c824},,38.74814977367500000000,-112.10269079429100000000
Sites.258,POINT (-75.16255945609383 38.747308529790786),1604,17832 Coastal Hwy,Lewes,DE,19958,,431993,49,{67c1aca8-2d07-406a-95dd-45cbfbda1d5e},,38.74730852979070000000,-75.16255945609380000000
Sites.220,POINT (-90.01458287576689 38.67436877236229),6961,1049 Collinsville Crossing,Collinsville,IL,62234,,312316,58,{0797c476-fa74-4041-9c22-4f4db00b781e},{9b4a0617-081d-4cb9-89ce-f5a31ccd9a61},38.67436877236220000000,-90.01458287576680000000
Sites.215,POINT (-121.32559448885897 38.66211898027262),Madison Plaza,5919 Madison Ave,Carmichael,CA,95608,,475331,53,{4289a386-a654-48d8-801e-9abadb17a348},,38.66211898027260000000,-121.32559448885800000000
Sites.76,POINT (-90.19097335399994 38.621455981000054),MI1136,500 S Broadway St,St Louis,MO,63102,,102066,40,{1690CF5E-2A28-45DF-83B8-14F92656391B},,38.62145598100000000000,-90.19097335399990000000
Sites.75,POINT (-90.19266974599998 38.62039089800004),The Parking Reit - MI1130,619 S Broadway St,St Louis,MO,63102,,53620,35,{D7267D22-0768-4EB5-859B-C05690D599E0},,38.62039089800000000000,-90.19266974599990000000
Sites.67,POINT (-106.92566385399999 38.553534952000064),King Soopers - 419,880 N Main St,Gunnison,CO,81230,,122289,48,{D7FC5DA5-F062-4486-AD31-0B1587579DF1},,38.55353495200000000000,-106.92566385399900000000
Sites.154,POINT (-122.80629934539769 38.55154300378892),Kimco Lakewood Village,Brooks Rd. S. & Lakewood Dr.,Windsor,CA,95492,,258039,54,{b2411708-5a49-46e1-a3cf-458fe6081865},,38.55154300378890000000,-122.80629934539700000000
Sites.498,POINT (-90.44957412559208 38.50499674994614),Regal Cinema,754 Gravois Bludds Blvd,Fenton,MO,63026,,221519,29,{0b4c2b12-31b3-4b41-9704-a959674e12da},,38.50499674994610000000,-90.44957412559200000000
Sites.216,POINT (-122.77086185251399 38.45393145545557),Test Site,123 Fake Street,Santa Rosa,CA,95401,,247673,13,{48b1adfd-ac7b-4f6b-90fe-38fb8e531c6e},,38.45393145545550000000,-122.77086185251300000000
Sites.173,POINT (-122.77086185251399 38.45393145545557),"Kimco - 113240 Fulton Market Place
",Guerneville Hwy. & Fulton Rd.,Santa Rosa,CA,95401,,247673,41,{e0048d94-c3e1-426e-9c0c-e6e1116d16d9},,38.45393145545550000000,-122.77086185251300000000
Sites.554,POINT (-121.37040484194165 38.45157712300313),114400 - Bel Air Village SC,Elk Grove Florin Rd,Elk Grove,CA,95624,,176612,63,{c1c21821-d3f4-4d91-bf57-a43b420f725a},{9332e7f4-c292-4480-af81-dacc89da5a87},38.45157712300310000000,-121.37040484194100000000
Sites.182,POINT (-121.37027917288258 38.45106643917861),Bel Air Village SC,Elk Grove Florin Rd,Elk Grove,CA,95624,,299429,71,{26d0d85a-4357-428b-bf81-f9d8ce8eb023},,38.45106643917860000000,-121.37027917288200000000
Sites.533,POINT (-121.37023080713108 38.45020110954838),117440 - Bel Air Village SC,Elk Grove Florin Rd,Elk Grove,CA,95624,,122818,88,{aaaef46d-15d8-4c57-889a-f753720683f2},{9332e7f4-c292-4480-af81-dacc89da5a87},38.45020110954830000000,-121.37023080713100000000
Sites.388,POINT (-75.16308711441532 38.34126807043221),2578,11408 Ocean Gateway,Berlin,MD,21811,,374157,54,{28bc63ad-422b-57c2-88bb-43bef732aab5},,38.34126807043220000000,-75.16308711441530000000
Sites.351,POINT (-85.8436979714624 38.30535795263767),2016,2239 State St,New Albany,IN,47150,,269199,40,{5935fe9f-5a34-4970-86b6-2bb76173bb82},{9b4a0617-081d-4cb9-89ce-f5a31ccd9a61},38.30535795263760000000,-85.84369797146240000000
Sites.476,POINT (-122.27712755352665 38.282640165963606),113270 South Napa Market Place,Imola Ave. & Soscol Ave.,Napa,CA,94559,,885392,67,{129b9cbe-aeb2-98eb-28ed-128bef987ad3},,38.28264016596360000000,-122.27712755352600000000
Sites.505,POINT (-122.27712755352665 38.282640165963606),113270 South Napa Market Place,Imola Ave. & Soscol Ave.,Napa,CA,94559,,887653,67,{238b9cbe-aeb2-98eb-28ed-128bef987ad3},,38.28264016596360000000,-122.27712755352600000000
Sites.396,POINT (-85.7505998399696 38.156214879187814),Atkore - Louisville,6700 Enterprise Dr,Louisville,KY,40214,,380330,25,{7408cacd-cf0c-49a3-8525-f2971d749b5f},{d2111fe3-99f7-459b-b5bb-5d687d04813b},38.15621487918780000000,-85.75059983996960000000
Sites.330,POINT (-122.57155713577264 38.10266788504062),Novato Fair S.C.,Diablo Ave. & Redwood Blvd.,Novato,CA,94947,,261633,81,{0787cac2-f98f-4bf5-a1f5-8bad9e465f3a},,38.10266788504060000000,-122.57155713577200000000
Sites.217,POINT (-87.63893033860107 37.97353297665532),TEST 2010,5230 Pearl Dr,Evansville,IN,47712,,273312,57,{bfb58b8b-b597-403a-8a48-eabd91b9d81e},{9b4a0617-081d-4cb9-89ce-f5a31ccd9a61},37.97353297665530000000,-87.63893033860100000000
Sites.525,POINT (-87.63893033860107 37.97353297665532),2010,5230 Pearl Dr,Evansville,IN,47712,,273312,58,{a03ed77f-408e-4ca3-ac70-678754afc748},,37.97353297665530000000,-87.63893033860100000000
Sites.547,POINT (-87.63893033860107 37.97353297665532),2010,5230 Pearl Dr,Evansville,IN,47712,,273312,,{0d57c942-3d4d-4280-b425-5fcee06b54ac},,37.97353297665530000000,-87.63893033860100000000
Sites.612,POINT (-87.63893033860107 37.97353297665532),TEST 2010,5230 Pearl Dr,Evansville,IN,47712,,273312,56,{61f07587-f650-4696-a562-38944f8b97bb},,37.97353297665530000000,-87.63893033860100000000
Sites.598,POINT (-121.98374764617391 37.77535005797901),6604,2750 Crow Canyon Rd,San Ramon,CA,94583,,258186,68,{5465f86e-7b0b-4109-82c6-418ede1c43b0},{9b4a0617-081d-4cb9-89ce-f5a31ccd9a61},37.77535005797900000000,-121.98374764617300000000
Sites.288,POINT (-85.88731782357009 37.72814087692432),2316,1510 Ring Rd,Elizabethtown,KY,42701,,251910,94,{dbdd48d7-07ed-4ecc-a087-a71cfc6cb969},,37.72814087692430000000,-85.88731782357000000000
Sites.381,POINT (-121.74357249552811 37.7004716973434),"114730 - Plaza 580 SC
",4514 Las Positas Rd,Livermore,CA,94551,,368689,40,{6d74d434-e0bc-4672-a1a4-c6a29b44cf0e},{9332e7f4-c292-4480-af81-dacc89da5a87},37.70047169734340000000,-121.74357249552800000000
Sites.237,POINT (-122.09854823840442 37.68513688216703),Creekside Center,Mission Blvd & Mattox Rd.,Hayward ,CA,94541,,186473,47,{95a0e069-72b2-4392-b858-346e4481fd6d},{9332e7f4-c292-4480-af81-dacc89da5a87},37.68513688216700000000,-122.09854823840400000000
Sites.400,POINT (-122.46717629818652 37.67785288933282),110260 - 280 Metro Center,53 Colma Blvd,Colma,CA,94014,,496346,78,{772055b7-cac2-4113-b179-7254f03e3299},{9332e7f4-c292-4480-af81-dacc89da5a87},37.67785288933280000000,-122.46717629818600000000
Sites.69,POINT (-77.40170434899994 37.65185491700004),515,9253 Chamberlayne Rd,Mechanicsville,VA,23116,,239231,45,{676B4B70-7B8D-438C-A2ED-7B0A12F322A1},,37.65185491700000000000,-77.40170434899990000000
Sites.391,POINT (-113.08719702328817 37.65152979259821),4418,1518 S Providence Center Dr,Cedar City,UT,84720,,308288,49,{600e0138-41ac-4936-97c3-ab57f8e96627},,37.65152979259820000000,-113.08719702328800000000
Sites.370,POINT (-77.5145201811862 37.59781637518111),4632,6501 W Broad St,Richmond,VA,23230,,269103,78,{114e7661-0801-4c4b-aef5-d8a526a5b12d},,37.59781637518110000000,-77.51452018118620000000
Sites.619,POINT (-122.50230126587377 37.5946453328835),111150 Linda Mar SC,"Linda Mar Blvd. & Coast Hwy., Pacifica, CA, 94044",Pacifica,CA,94044,,220490,68,{54be12ad-b5da-8dde-43fe-9bef2233a88f},,37.59464533288350000000,-122.50230126587300000000
Sites.303,POINT (-122.02432799293531 37.56767486481679),Brookvale SC,Fremont Blvd. & Tamoyo St.,Fremont,CA,94536,,345856,49,{574d6ef4-d43e-4abb-b738-1408770f0eb5},,37.56767486481670000000,-122.02432799293500000000
Sites.316,POINT (-121.98775622934409 37.54521674502837),Fremont Hub,Argonaut Way & Mowry Ave.,Fremont,CA,94538,,823472,53,{3e193cc7-d7c5-476e-925a-037f3aa728cf},,37.54521674502830000000,-121.98775622934400000000
Sites.318,POINT (-77.62405848182003 37.43048616321959),4627,12300 Chattanooga Plz,Midlothian,VA,23112,,273353,94,{b8f58ea2-150a-48df-8aa9-60259b475027},{9b4a0617-081d-4cb9-89ce-f5a31ccd9a61},37.43048616321950000000,-77.62405848182000000000
Sites.448,POINT (-122.01518625073464 37.336901014755675),Golden Corral - Gallipolis,304 Upper River Road,Gallipolis,OH,45631,,208937,71,{08f8cd97-5f70-446e-92b7-43a97667d8c2},,37.33690101475560000000,-122.01518625073400000000
Sites.219,POINT (-79.96783827007806 37.225439565918734),4628,4176 Franklin Rd SW,Roanoke,VA,24014,,232014,69,{6b7f3cc3-01c2-4857-a148-087cf5d11993},{9b4a0617-081d-4cb9-89ce-f5a31ccd9a61},37.22543956591870000000,-79.96783827007800000000
Sites.410,POINT (-80.42475107928287 37.15675266290592),4634,200 Conston Ave NW,Christiansburg,VA,24073,,294810,91,{57098e17-3083-4ad7-b333-78eeec424f75},{9b4a0617-081d-4cb9-89ce-f5a31ccd9a61},37.15675266290590000000,-80.42475107928280000000
Sites.376,POINT (-76.39027479097842 37.0570960715181),Sentara Complex Hospital,3000 Coliseum Dr,Hampton,VA,23666,,708685,62,{abcd84d2-a32c-48bd-b0fc-19e29d9f675c},Sentara Healthcare,37.05709607151810000000,-76.39027479097840000000
Sites.226,POINT (-108.15988463169924 36.752382411489606),TEST 3508,3560 E Main St,Farmington,NM,87402,,313809,89,{4bece13a-1bd9-40a5-9715-3f1bd0ffe69c},,36.75238241148960000000,-108.15988463169900000000
Sites.232,POINT (-108.15988463169924 36.752382411489606),3508,3560 E Main St,Farmington,NM,87402,,313809,89,{5b2d31e0-eb7c-45f6-301a-d59a1c9a1254},,36.75238241148960000000,-108.15988463169900000000
Sites.509,POINT (-79.41445284293584 36.60287200224448),"Golden Corral, Danville",195 Holt Garrison Parkway,Danville,VA,24540,,62357,70,{2c04fbcb-9ee6-4ea3-b74a-bf2aa2de5772},{4cbb436a-068d-41f3-a012-b41c20110e48},36.60287200224440000000,-79.41445284293580000000
Sites.508,POINT (-92.36782867260672 36.351491140508756),"Orschein Farm & Home, Mountain Home
",1025 Highway 62 E,Mountain Home,AR,72653,,241055,24,{12eec42e-dfb0-4271-8160-2bdfa49b321e},{4cbb436a-068d-41f3-a012-b41c20110e48},36.35149114050870000000,-92.36782867260670000000
Sites.47,POINT (-82.40032031399994 36.348611453000046),Best Buy Johnson City 899,3222 Peoples St,Johnson City,TN,37604,,104678,82,{81C0C9CF-0997-4DFB-9963-FBBB33EB963B},,36.34861145300000000000,-82.40032031399990000000
Sites.459,POINT (-90.983407494278 36.25784471450983),Orscheln Farm & Home,1966 US-62,Pocahontas,AR,72455,,84609,54,{eef96186-2198-437c-90bd-f770d929295f},,36.25784471450980000000,-90.98340749427800000000
Sites.197,POINT (-80.27313273852673 36.1781805428921),3641,5721 University Pkwy,Winston-Salem,NC,27105,,281571,87,{9cc6bbf9-0bfe-42da-9e00-7db3c3093b22},,36.17818054289210000000,-80.27313273852670000000
Sites.13,POINT (-115.17395421599997 36.16109026600003),Rancho Towne & Country,Rancho Dr at Charleston Blvd,Las Vegas,NV,89106,255035,255035,61,{3FC210E6-3FA5-4A3A-BEAD-9B69E289544A},,36.16109026600000000000,-115.17395421599900000000
Sites.58,POINT (-115.17395421599997 36.16109026600003),Rancho Towne & Country,Rancho Dr at Charleston Blvd,Las Vegas,NV,89106,255035,255035,61,{3FC210E6-3FA5-4A3A-BEAD-9B69E289544A},,36.16109026600000000000,-115.17395421599900000000
Sites.564,POINT (-115.33548183900609 36.16047584903522),110090 Canyon Pointe S.C.,W Charleston Blvd. (SR 159) & Hughes Park Dr. E,Las Vegas,NV,89135,,367271,74,{12bea93c-1ba9-ff99-ad23-23b7a2ad573f},,36.16047584903520000000,-115.33548183900600000000
Sites.553,POINT (-79.46513077525857 36.06539859305277),3627,Lawn Equipment and Chemicals,Burlington,NC,27215,,278786,52,{e43ef524-fa08-449d-aac4-0ff4a597d39a},,36.06539859305270000000,-79.46513077525850000000
Sites.500,POINT (-79.87937426380405 36.05118271404809),AMC,4822 Kroger Blvd.,Greensboro,NC,27407,,198075,37,{03d7f32d-f348-4d85-982e-33a6efd677ae},{4cbb436a-068d-41f3-a012-b41c20110e48},36.05118271404800000000,-79.87937426380400000000
Sites.193,POINT (-78.54252117752365 35.971474374322554),3647,11915 Retail Dr,Wake Forest,NC,27587,,260074,63,{33e81b3a-175f-4329-91de-ece35c9bf277},,35.97147437432250000000,-78.54252117752360000000
Sites.589,POINT (-84.2637253186292 35.82020029912135),740,250 Abbie Dr,Lenoir City,TN,37772,,303829,58,{73866879-229a-4d95-95ea-b13f2ef8dd88},,35.82020029912130000000,-84.26372531862920000000
Sites.301,POINT (-90.70372648142364 35.80578635888411),1406,711 E Parker Rd.,Jonesboro,AR,72404,,295330,73,{5f31a72e-dff8-4b0d-9688-0b9b2a467784},{9b4a0617-081d-4cb9-89ce-f5a31ccd9a61},35.80578635888410000000,-90.70372648142360000000
Sites.83,POINT (-78.87249123599997 35.78554153300007),High House Crossing,NC Hwy 55 at Green Level West,Cary,NC,27519,,256433,27,{E6DB872F-E1AA-4DA8-800E-719B068F576F},,35.78554153300000000000,-78.87249123599990000000
Sites.453,POINT (-80.26172174383714 35.78320405434112),Golden Corral - Danville,195 Holt Garrison Parkway,Danville,VA,24540,,50254,16,{5bb3460c-9121-4c43-8558-d9e22d8ae254},{4cbb436a-068d-41f3-a012-b41c20110e48},35.78320405434110000000,-80.26172174383710000000
Sites.497,POINT (-80.26173850751243 35.78319412397307),Golden Corral - Lexington,1507 Cotton Grove Road,Lexington,NC,27292,,50729,18,{5c2567f8-4396-4558-bbac-8991cedb8d72},,35.78319412397300000000,-80.26173850751240000000
Sites.255,POINT (-78.63853662624344 35.71320926792521),3631,2540 Timber Dr,Garner,NC,27529,,347182,91,{5e382c6f-c069-432f-8194-32abcbf8789e},,35.71320926792520000000,-78.63853662624340000000
Sites.87,POINT (-84.25998786599996 35.69440189300008),Truist Bank - Loudon,"302 Village Square, Loudon, TN 37774",Loudon,TN,37774,17093,17093,78,{A1431620-4093-489C-A2B0-895AD62B9255},,35.69440189300000000000,-84.25998786599990000000
Sites.50,POINT (-93.15122572799999 35.28286381200007),West Main Russellville,1907 W Main St,Russellville,AR,72801,,14809,19,{E9CBDC15-C6FD-4BA1-AC1F-8165F76453C0},,35.28286381200000000000,-93.15122572799990000000
Sites.624,POINT (-89.89910838943221 35.20873101594735),737,4950 Stage Rd,Memphis,TN,38128,,394561,92,{98b17c14-8958-4c7e-b2c3-ddb27e3758b8},{9b4a0617-081d-4cb9-89ce-f5a31ccd9a61},35.20873101594730000000,-89.89910838943220000000
Sites.595,POINT (-101.94001884822691 35.18214247318328),108790 Westgate Plaza,NULLSoncy Rd. & I-40,Amarillo,TX,79124,,628448,37,{95b3da2e-7ba2-6ff3-21bd-456bbdef7a32},,35.18214247318320000000,-101.94001884822600000000
Sites.52,POINT (-77.07303135699993 35.14112991600007),Hatteras Yachts,110 N Glenburnie Rd,New Bern ,NC,28560,261357,261357,40,{55B41D5E-3DDA-491E-9CAD-503AAD576BBA},,35.14112991600000000000,-77.07303135699990000000
Sites.317,POINT (-92.41151042731586 35.08500974320914),1407,500 Elsinger Blvd,Conway,AR,72032,,304978,72,{63bbea5e-74ac-b3c1-99fa-65cd987bbea2},,35.08500974320910000000,-92.41151042731580000000
Sites.620,POINT (-78.97502299943619 35.053732280225425),3626,2060 Skibo Rd,Fayetteville,NC,28314,,233911,4,{3f6e50a1-f761-4032-b0e9-2744d4f7b0e4},,35.05373228022540000000,-78.97502299943610000000
Sites.468,POINT (-81.87475248221766 34.98027624658041),1108,2300 E. Main St.,Spartanburg,SC,29307,,349815,80,{eb5c6f98-1f55-46c3-a7dc-5d753905fc43},{9b4a0617-081d-4cb9-89ce-f5a31ccd9a61},34.98027624658040000000,-81.87475248221760000000
Sites.12,POINT (-82.30786828800143 34.82831716705094),1119,79 Woodruff Industrial Ln,Greenville,SC,29607,,280091,54,{dea1d51c-b2d2-4ed0-90b1-4e5f8fc60fe0},,34.82831716705090000000,-82.30786828800140000000
Sites.635,POINT (-82.37515559240543 34.80031133798618),1127,1339 S Pleasantburg Dr,Greenville,SC,29605,,316986,49,{73854afb-8591-4e1a-b4ab-a9f2a01a29e0},,34.80031133798610000000,-82.37515559240540000000
Sites.486,POINT (-82.25464071088966 34.70904879080674),1124,669 Fairview Rd,Simpsonville,SC,29680,,258666,64,{a5def2e9-fc5f-4c25-9e00-d70bf8c2591c},{9b4a0617-081d-4cb9-89ce-f5a31ccd9a61},34.70904879080670000000,-82.25464071088960000000
Sites.362,POINT (-86.76015426820794 34.66501164871231),"ES 255
","255 Short Pike Road
",Huntsville,AL,35824,,210160,69,{32a441dc-2984-4296-835d-15e6cd2dbc86},,34.66501164871230000000,-86.76015426820790000000
Sites.511,POINT (-103.19728759551393 34.44606197851868),"Tractor Supply - Clovis, NM",4724 N Prince St,Clovis,NM,88101,,112053,97,{5ebb3ae5-3c76-4ed8-ac1b-2ccc0f9e785d},{4cbb436a-068d-41f3-a012-b41c20110e48},34.44606197851860000000,-103.19728759551300000000
Sites.340,POINT (-118.55069805436636 34.40396832424203),Ganary Square,McBean Pkwy & Arroyo Park Dr.,Valencia,CA,91355,,330167,79,{5997a949-abf7-4fec-bc28-e65b0f4f6154},{9332e7f4-c292-4480-af81-dacc89da5a87},34.40396832424200000000,-118.55069805436600000000
Sites.631,POINT (-88.69691236592902 34.31826042661531),2906,1074 Cross Creek Dr,Saltillo,MS,38866,,262009,92,{36814c26-d5f3-4ee8-b248-4b18303668c8},{9b4a0617-081d-4cb9-89ce-f5a31ccd9a61},34.31826042661530000000,-88.69691236592900000000
Sites.294,POINT (-118.55903689119617 34.24184890991947),Plaza Di Northridge,Plummer St. & Shirley Ave.,Northridge,CA,91324,,201224,65,{19861fb9-a5a8-43b0-9bc7-fd8ebbad20ae},,34.24184890991940000000,-118.55903689119600000000
Sites.310,POINT (-80.87292391741832 34.12677481650934),1109,285 Forum Dr.,Columbia,SC,29229,,248872,67,{573bd84b-111a-4126-b663-bb4704b778f9},,34.12677481650930000000,-80.87292391741830000000
Sites.566,POINT (-117.76054010394559 34.11005056202989),La Verne Towne Center,Foothill Rd & N. White Ave.,La Verne,CA,91750,,440032,64,{14b2d05d-2ae4-4966-b593-a8b20645eefa},{9332e7f4-c292-4480-af81-dacc89da5a87},34.11005056202980000000,-117.76054010394500000000
Sites.290,POINT (-117.905443533558 34.10585757981816),Covina Town Square,Azusa Ave. & Arrow Hwy,Covina ,CA,91722,,919215,85,{2f139fcf-ffd4-4477-a11a-4d8398596e3a},,34.10585757981810000000,-117.90544353355800000000
Sites.615,POINT (-117.39913807100082 34.10572852333969),6683,1451 W Foothill Blvd,Rialto,CA,92376,,281240,94,{473ee3df-af99-4a85-938a-53a520cd3353},,34.10572852333960000000,-117.39913807100000000000
Sites.481,POINT (-117.66890276348163 34.089601132702924),Mountain Square,S. Mountain Ave. & W. 8th St.,Upland,CA,91786,,516540,65,{33b8edbf-c2b5-4340-a07e-44f31281b358},,34.08960113270290000000,-117.66890276348100000000
Sites.292,POINT (-118.14781365980858 34.08933065084495),Costco Plaza,Commonwealth St. & Palm Ave,Alhambra,CA,91803,,472556,59,{60662f37-008f-4abb-bab6-c986be3b460e},,34.08933065084490000000,-118.14781365980800000000
Sites.6,POINT (-84.16581977521076 34.069492940627185),Store 434,3651 Peachtree Pkwy,Suwanee,GA,30024,,294252,31,{6af3a134-2c2b-4eb7-809a-cf8b0f45fa20},{09f9e090-eceb-4bca-9319-ff32928180a6},34.06949294062710000000,-84.16581977521070000000
Sites.18,POINT (-117.26703149499997 34.06656768400006),150 - San Bernadino,888 Harriman Place,San Bernadino,CA,92408,,167916,84,{31A8C919-0E8A-437F-96AB-C464FA9E3633},,34.06656768400000000000,-117.26703149499900000000
Sites.89,POINT (-117.26703216199996 34.066567544000065),San Bernadino,888 Harriman Place,San Bernadino,CA,92408,,151672,94,{31A8C919-0E8A-437F-96AB-C464FA9E3633},,34.06656754400000000000,-117.26703216199900000000
Sites.425,POINT (-84.4653645239337 34.03821647763455),1763,3605 Sandy Plains Rd,Marietta ,GA,30066,,191827,27,{6871017b-843c-431c-88bd-9bd5db6b8a2a},{9b4a0617-081d-4cb9-89ce-f5a31ccd9a61},34.03821647763450000000,-84.46536452393370000000
Sites.419,POINT (-84.46517532057285 34.03813925221171),1763,3605 SANDY PLAINS RD,Marietta,GA,300066,,191791,28,{1be8f9ac-12b7-eb7a-122b-bc88ea91fda7},,34.03813925221170000000,-84.46517532057280000000
Sites.369,POINT (-118.09407599185147 34.03381278864471),Montebello Town Square,Montebello Blvd. & Paramount Blvd.,Montebello,CA,90640,,516103,70,{4dd43ee3-3ba1-4db2-bf73-d9fc8901e23e},,34.03381278864470000000,-118.09407599185100000000
Sites.295,POINT (-117.68438687313741 34.03269254399766),Chino Town Square,Philadelphia St. & Central Ave.,Chino,CA,91710,,671359,61,{e51bf73e-8c62-4dc6-8286-faec20bee2c8},,34.03269254399760000000,-117.68438687313700000000
Sites.155,POINT (-80.95410816608731 34.02169001361283),,,,,,,137714,54,{e984fea2-1aaa-4333-a3a7-168d31187cb7},,34.02169001361280000000,-80.95410816608730000000
Sites.34,POINT (-117.92233330299996 33.997458567000024),City of Industry,17545 Gale Avenue,City of Industry,CA,91748,170636,170636,34,{FF62C08A-A368-41B2-A96D-15E51384E4DB},,33.99745856700000000000,-117.92233330299900000000
Sites.269,POINT (-117.7586040942976 33.99407247717293),"113350 - Laband Village S.C.
",Chino Hills Pkwy. & Grand Ave.,Chino Hills,CA,91709,,160466,71,{d164d099-0dd8-4a63-afa7-a1cd3db631cd},{9332e7f4-c292-4480-af81-dacc89da5a87},33.99407247717290000000,-117.75860409429700000000
Sites.333,POINT (-118.29011156872808 33.98821671943926),Vermont-Slauson S.C.,S. Vermont Ave. & W. Slauson Ave,Los Angeles,CA,90044,,237898,66,{df236ce3-f66d-4f4c-aafa-cb3e1453399f},,33.98821671943920000000,-118.29011156872800000000
Sites.361,POINT (-84.43463772241338 33.9806469733332),111,4101 Roswell Rd,Marietta,GA,30062,,316052,84,{16739b31-7b7f-48e9-94ef-c2a87752fbbe},,33.98064697333320000000,-84.43463772241330000000
Sites.429,POINT (-84.62090022453279 33.94768974300586),153,2350 Dallas Hwy,Marietta,GA,30064,,246664,94,{f6fefbf7-d321-4470-9444-af48157b0eaa},,33.94768974300580000000,-84.62090022453270000000
Sites.477,POINT (-117.99555232531728 33.94367989561546),Whittwood Town Center,Whittier Blvd. & Santa Gertrudes Ave.,Whittier,CA,90603,,2664394,39,{924eaa56-4fc2-4933-90e7-4bfc65d5de02},,33.94367989561540000000,-117.99555232531700000000
Sites.346,POINT (-118.23753007456608 33.92587617619862),114170 Kenneth Hahn Plaza,Wilmington Ave. & E. 119th St.,Los Angeles,CA,90059,,344127,80,{4528deb1-e58f-4af5-b1c5-8cad6b464e2f},,33.92587617619860000000,-118.23753007456600000000
Sites.445,POINT (-118.00735227173664 33.89740732850095),La Mirada Theater Center,Rosecrans Ave. & La Mirada Blvd,La Mirada,CA,90638,,863251,54,{25409c1b-87a1-45cc-845a-77112b8cd4ea},,33.89740732850090000000,-118.00735227173600000000
Sites.299,POINT (-117.52318301745639 33.886719124668524),Corona Hills Plaza,Rte. 91 & McKinley St.,Corona,CA,92879,,1426911,59,{eb88adf4-3e6a-431e-8ee1-9ecff9022b57},,33.88671912466850000000,-117.52318301745600000000
Sites.366,POINT (-118.14081467539589 33.875743411738995),"114191 - Lakewood Plaza
",Lakewood Blvd. & Artesia Frwy,Bellflower,CA,90706,,229879,40,{6ab3f46a-de3f-43a8-9e6d-aadccece2725},{9332e7f4-c292-4480-af81-dacc89da5a87},33.87574341173890000000,-118.14081467539500000000
Sites.30,POINT (-117.73653204899995 33.87371069500006),126 Yorba Linda,23000 Savi Ranch Parkway,Yorba Linda ,CA,92885,,140648,56,{02D4729E-9579-46B9-9F79-DA50729E05BB},,33.87371069500000000000,-117.73653204899900000000
Sites.240,POINT (-118.29745935585112 33.87224551183709),"114140 - Gardena Gateway Center
",W. Artesia Blvd. & Normandie Ave.,Gardena,CA,90248,,156036,91,{fee7ef67-f75e-400b-9a6b-5450adcc2ba1},{9b4a0617-081d-4cb9-89ce-f5a31ccd9a61},33.87224551183700000000,-118.29745935585100000000
Sites.337,POINT (-117.74984709879536 33.871582762434834),6643,1095 Pullman St,Anaheim,CA,92807,,392398,18,{486e655a-fc02-4c5b-9ca9-5152ebcd9a51},,33.87158276243480000000,-117.74984709879500000000
Sites.609,POINT (-84.19004982317313 33.86873335144358),175,4136 Jimmy Carter Blvd,Norcross,GA,30093,,307710,69,{ad849a31-f604-4963-91da-d7e39574d13c},{9b4a0617-081d-4cb9-89ce-f5a31ccd9a61},33.86873335144350000000,-84.19004982317310000000
Sites.541,POINT (-84.59032587178002 33.85777111636068),1749,1200 East-West Connector,Austell,GA,30106,,274351,47,{6ddafd39-522e-4e42-9fd9-3fc1b9d6d02f},,33.85777111636060000000,-84.59032587178000000000
Sites.485,POINT (-118.35290661100804 33.85233122125326),Torrance Promenade,Hawthorne Blvd. & Halison St.,Torrance,CA,90503,,485373,71,{2805a558-61be-4b19-a676-dd83082aaf2a},,33.85233122125320000000,-118.35290661100800000000
Sites.630,POINT (-117.88997920289327 33.84876194852542),"114330 - Sycamore Plaza
",E La Palma Ave,Anaheim,CA,92805,,207883,67,{5014e8af-a224-4a85-a8f9-b46a5f53b503},{9332e7f4-c292-4480-af81-dacc89da5a87},33.84876194852540000000,-117.88997920289300000000
Sites.611,POINT (-78.6794429831633 33.82655011643039),020 - North Myrtle Beach,781 Main St,North Myrtle Beach,SC,29582,,221030,51,{89acf830-2748-4f3e-8787-7397d0f65134},{09f9e090-eceb-4bca-9319-ff32928180a6},33.82655011643030000000,-78.67944298316330000000
Sites.23,POINT (-84.33785331872465 33.824443606420296),Athletic Club Northeast,1515 Sheridan Rd NE,Atlanta,GA,30324,,72920,88,{84dc31de-f865-4f4f-b834-66470ef2ec23},{9b4a0617-081d-4cb9-89ce-f5a31ccd9a61},33.82444360642020000000,-84.33785331872460000000
Sites.225,POINT (-117.96093737298531 33.81875282047624),Brookhurst Center,921 S Brookhurst St,Anaheim,CA,92804,,443507,61,{3715f502-5fa8-4727-92f2-3f3d06db26cc},{9332e7f4-c292-4480-af81-dacc89da5a87},33.81875282047620000000,-117.96093737298500000000
Sites.43,POINT (-118.01027876099994 33.76118596400005),Westminster,6777 Westminster Blvd,Westminster,CA,92683,1014597,1014597,73,{974A3AE6-990E-4633-AE4E-9188B6214D90},,33.76118596400000000000,-118.01027876099900000000
Sites.536,POINT (-117.19182771105693 33.747263600919325),6875,3150 Case Rd,Perris,CA,92570,,295911,59,{e2394b48-687a-4ef2-8e1c-f816bdb474d5},,33.74726360091930000000,-117.19182771105600000000
Sites.442,POINT (-117.80955611992783 33.74704058290147),"114340 - Tustin Heights S.C.
",1198 Irvine Blvd,Tustin,CA,92780,,312183,55,{42b17c9b-ae0a-4097-a8d8-d40a5432e151},,33.74704058290140000000,-117.80955611992700000000
Sites.363,POINT (-117.81811094205169 33.74459816118165),Larwin Square S.C.,E. 1st St. & Newport Ave.,Tustin,CA,92780,,387615,81,{3e036069-6646-426b-9309-6b5e1724c537},{9332e7f4-c292-4480-af81-dacc89da5a87},33.74459816118160000000,-117.81811094205100000000
Sites.336,POINT (-118.02597871483434 33.72865938991152),Marina Village,Edinger Ave. & Springdale St.,Huntington Beach,CA,92649,,314657,75,{03ea45a6-a3dc-46d2-8edb-e9694d5c1d81},{9332e7f4-c292-4480-af81-dacc89da5a87},33.72865938991150000000,-118.02597871483400000000
Sites.300,POINT (-117.98702809461075 33.72525771536103),"114290 - Pavilions Place
",Beach Blvd. & Heil Ave.,Westminster,CA,92683,,438197,64,{4606e1d8-6ad7-41d3-b452-9ff40ed55633},{9332e7f4-c292-4480-af81-dacc89da5a87},33.72525771536100000000,-117.98702809461000000000
Sites.291,POINT (-117.91644219503318 33.70062182302245),"105590 - Home Depot Plaza
",3500 W MacArthur Blvd,Santa Ana,CA,92704,,252800,47,{3f03f6ef-1b82-49be-b238-82c9fd33f5d1},{9332e7f4-c292-4480-af81-dacc89da5a87},33.70062182302240000000,-117.91644219503300000000
Sites.405,POINT (-117.8268451231485 33.69836699725969),The District @ Tustin Legacy,Jamboree Rd. & Barranca Pkwy.,Tustin,CA,92782,,2472745,78,{f56a6863-606d-47a8-b099-dc6961a857f2},,33.69836699725960000000,-117.82684512314800000000
Sites.21,POINT (-84.51078086411728 33.65617994540951),120630 Publix at Princeton Lakes,Camp Creek Pkwy & Carmia Dr.,Atlanta,GA,30331,,184784,34,{8befaa54-812c-7ad6-23bb-bbb22875ad3f},{9b4a0617-081d-4cb9-89ce-f5a31ccd9a61},33.65617994540950000000,-84.51078086411720000000
Sites.418,POINT (-112.2909634133419 33.639227579292395),116661 Bell Camino - Safeway Parcel,W. Bell Rd. & N. Webb Blvd.,Sun City,AZ,85351,,257989,50,{129b2ad9-1be8-aa7d-1be5-11bc8dde654a},,33.63922757929230000000,-112.29096341334100000000
Sites.131,POINT (-112.29099084475217 33.63920550719174),Kimco Bell Camino Center,W. Bell Rd. & N. Webb Blvd.,Sun City,AZ,85373,,250865,62,{8f0a516f-763c-4a5b-973e-10e47a62dacc},,33.63920550719170000000,-112.29099084475200000000
Sites.407,POINT (-112.2912420464709 33.63889750902515),"116661 - Bell Camino - Safeway Parcel
",10920 W Bell Rd,Sun City,AZ,85373,,257989,51,{06452255-c5a9-4311-b494-ec6be578f3ce},{9332e7f4-c292-4480-af81-dacc89da5a87},33.63889750902510000000,-112.29124204647000000000
Sites.132,POINT (-112.23069926439484 33.63658899364069),116670 - North Valley SC,West Bell Rd. & N. 83rd Ave,Peoria,AZ,85382,,521848,42,{a68d4bc6-a0bd-412f-89f6-2d3a0b800489},,33.63658899364060000000,-112.23069926439400000000
Sites.62,POINT (-111.87530612999996 33.619550453000045),Scottsdale Horizon,N Thompson Peak Pkwy & Frank Lloyd Wright Blvd,Scottsdale,AZ,85260,381375,381375,52,{E61CDFF7-5A91-453D-BDD6-3946EC9957C8},,33.61955045300000000000,-111.87530612999900000000
Sites.432,POINT (-86.64196180810707 33.60188360194051),887,1600 Gadsden Hwy,Trussville,AL,35173,,363790,53,{69909556-2481-4770-a660-8993cb4e220d},,33.60188360194050000000,-86.64196180810700000000
Sites.128,POINT (-111.97893665066876 33.59675721474749),"116650 - Village Crossroads
",E. Cactus Rd. & N.Tatum Blvd,Phoenix,AZ,85032,,350903,51,{23700bde-0b9c-4749-b248-9728f1d3574c},,33.59675721474740000000,-111.97893665066800000000
Sites.68,POINT (-79.01284968099998 33.58385664800005),Kroger - 25,2939 Hwy 17 S,Murrells Inlet,SC,29576,,210741,53,{6BB0505E-CDAA-44DC-AF4B-D356AE6B3C94},,33.58385664800000000000,-79.01284968099990000000
Sites.200,POINT (-112.11968704375002 33.58285104727441),"105530 - Metro Square
",N. Peoria Ave. & I-17,Phoenix,AZ,85029,,,,{fc66ce26-00ab-432e-9986-b3ec645e71f6},,33.58285104727440000000,-112.11968704375000000000
Sites.201,POINT (-112.11968704375002 33.58285104727441),"105530 - Metro Square
",N. Peoria Ave. & I-17,Phoenix,AZ,85029,,345900,65,{93b091f9-3051-44a1-8a45-0507a7e03eca},,33.58285104727440000000,-112.11968704375000000000
Sites.206,POINT (-112.11968704375002 33.58285104727441),"105530 - Metro Square
",N. Peoria Ave. & I-17,Phoenix,AZ,85029,,345900,65,{5485bc66-c0f0-4c99-bfb7-a6f43fa7d1e8},,33.58285104727440000000,-112.11968704375000000000
Sites.207,POINT (-112.11968704375002 33.58285104727441),"105530 - Metro Square
",N. Peoria Ave. & I-17,Phoenix,AZ,85029,,345900,65,{8d4955aa-70bb-4759-a7d3-f88160c52498},,33.58285104727440000000,-112.11968704375000000000
Sites.355,POINT (-86.48219341534688 33.574307797055816),ES 2545,"2545 US Highway 78
","Moody,  ",AL,35004,,371733,78,{c7bcc8f3-7338-47fa-a7a6-d14daa1f717c},,33.57430779705580000000,-86.48219341534680000000
Sites.289,POINT (-101.87316725187983 33.54769029280028),6827,2615 50th St.,Lubbock,TX,79413,,235051,97,{a32d0436-f209-4a83-a403-3cedd0b6c68a},{9b4a0617-081d-4cb9-89ce-f5a31ccd9a61},33.54769029280020000000,-101.87316725187900000000
Sites.55,POINT (-112.06308597299994 33.539163744000064),Madison Village Marketplace,7045 N 7th St,Phoenix,AZ,85020,,207590,,{CE6340D0-C7EC-4DEC-83B6-491BBFEDFED5},,33.53916374400000000000,-112.06308597299900000000
Sites.65,POINT (-112.04642155799996 33.53750170300003),Squaw Peak Plaza,1625 E Glendale Ave,Phoenix,AZ,85020,,109664,51,{EEC825F1-B9B1-4D9D-9965-1FA97B3C9613},,33.53750170300000000000,-112.04642155799900000000
Sites.203,POINT (-112.09539288008827 33.52225126669357),Christown Spectrum,1607 W Bethany Home Rd.,Phoenix,AZ,85015,,1918407,61,{499dd791-500c-445b-9bb1-733b3a3f34ac},,33.52225126669350000000,-112.09539288008800000000
Sites.235,POINT (-117.15949795016031 33.52152798576087),Palm Plaza S.C.,I-15 & Winchester Rd,Temecula,CA,92591,,999892,49,{272fd7fc-4488-416c-9660-a6a556b09c9b},,33.52152798576080000000,-117.15949795016000000000
Sites.344,POINT (-86.86956005846682 33.51651489422031),ES2700,2700 13th Street Ensley,Birmingham,AL,35208,,91140,72,{71227772-2c7a-47dd-9ea5-58a6ba814444},{e374537d-2e83-4da4-9d83-d911d1c14bb8},33.51651489422030000000,-86.86956005846680000000
Sites.265,POINT (-86.87223814070458 33.51640634738999),ES 1200,1200 Roberts Industrial Drive,Birmingham,AL,35208,,47215,28,{5f76cae4-5489-41c1-b4c0-3ad0cdb7d561},{e374537d-2e83-4da4-9d83-d911d1c14bb8},33.51640634738990000000,-86.87223814070450000000
Sites.239,POINT (-86.87595490005121 33.51533916110962),ES2500,2500 13th Street Ensley,Birmingham,AL,35211,,67866,35,{eb1db6cb-681d-4821-9ba1-604833c04be1},{e374537d-2e83-4da4-9d83-d911d1c14bb8},33.51533916110960000000,-86.87595490005120000000
Sites.127,POINT (-112.00478028277657 33.50186322617651),Arcadia Biltmore Plaza,E Campbell Ave. & N 36th St.,Phoenix,AZ,85018,,43407,65,{bcc5245d-8800-40df-9243-7c078a78332a},,33.50186322617650000000,-112.00478028277600000000
Sites.45,POINT (-111.91851829499996 33.50021079100003),Camelback Miller Plaza,4416 N Miller Rd,Scottsdale,AZ,85251,,316181,56,{DCF284E5-CFCC-4FF5-B28B-D90556C0750F},,33.50021079100000000000,-111.91851829499900000000
Sites.126,POINT (-112.1287259324603 33.493360004634106),Plaza Del Sol,3801 N 33rd Ave,Phoenix,AZ,85017,,609350,50,{33bcce62-b077-4eb1-933d-b0a40ee16e93},,33.49336000463410000000,-112.12872593246000000000
Sites.214,POINT (-117.09168010699017 33.481456416845745),"117640 - Vail Ranch Plaza
",32401 Temecula Pkwy,"Temecula, CA 92592",CA,92592,,238025,2,{7956125c-af74-4a30-ba63-4e15d77763de},,33.48145641684570000000,-117.09168010699000000000
Sites.241,POINT (-117.09662893947203 33.47989804534383),Redhawk Towne Center,Temecula Pkwy. & Redhawk Pkwy,Temecula,CA,92592,,1049719,81,{1874a660-7670-4d0d-a4a2-5016b00aace8},,33.47989804534380000000,-117.09662893947200000000
Sites.563,POINT (-86.9207261825845 33.47840093127928),882,6405 Flintridge Dr,Fairfield,AL,35064,,310127,63,{094a34f3-6e7e-4a10-9cec-3bd3d54df7c1},,33.47840093127920000000,-86.92072618258450000000
Sites.53,POINT (-111.91303043599999 33.46677914600008),Fountain Plaza,7770 E McDowell Rd,Scottsdale,AZ,85257,,235711,53,{D8A99D71-CFEC-4E2F-9B66-8AF42493CE3F},,33.46677914600000000000,-111.91303043599900000000
Sites.7,POINT (-84.32764229803712 33.45272832354392),6848,11075 Tara Blvd,Lovejoy,GA,30250,,271675,59,{bf8bdec2-9c4f-4505-aec5-08cec965c976},{9b4a0617-081d-4cb9-89ce-f5a31ccd9a61},33.45272832354390000000,-84.32764229803710000000
Sites.357,POINT (-86.85838242372586 33.446984787737954),"ES 432-434
","432-434 Industrial Lane
",Birmingham,AL,35211,,81766,73,{e5e3604a-2ed7-4b6b-970e-42f461de24ab},,33.44698478773790000000,-86.85838242372580000000
Sites.329,POINT (-86.85907659530639 33.44585008621215),"ES 240-260
","240-260 Lyon Lane
",Birmingham,AL,35211,,162510,85,{f63821a1-e2df-40a4-8cdb-ede9400a64fc},,33.44585008621210000000,-86.85907659530630000000
Sites.247,POINT (-111.86475348287297 33.43515583102189),Mesa Riverview,N. Dobson & Loop 202,Mesa,AZ,85201,,3770390,88,{c4edbbcc-aaca-4910-b1db-434fd148b8ef},,33.43515583102180000000,-111.86475348287200000000
Sites.44,POINT (-111.92509039099997 33.40643731200004),Broadway Marketplace,917 E Broadway Marketplace,Tempe,AZ,85282,,200054,,{C8895B73-F33D-48A7-BFC8-13223EC90C59},,33.40643731200000000000,-111.92509039099900000000
Sites.283,POINT (-84.59869530949496 33.399349340572755),164,2715 HWY 54 W,Peachtree City,GA,30269,,254232,64,{12b8cd25-abf6-e7fb-12b6-1287bbc72bc8},,33.39934934057270000000,-84.59869530949490000000
Sites.57,POINT (-111.63765567299998 33.37779304700007),Monte Vista Village Center,Baseline Rd at Ellsworth Rd,Mesa,AZ,85209,,214413,62,{C754924C-0372-480A-8A17-9A3FF47AADE3},,33.37779304700000000000,-111.63765567299900000000
Sites.64,POINT (-111.90957611899995 33.362408009000035),Pueblo Anozira Shopping Center,1835 E Guadalupe Rd,Tempe,AZ,85283,,422159,67,{B30181AA-523B-4850-A6C3-AD33E49606F1},,33.36240800900000000000,-111.90957611899900000000
Sites.519,POINT (-111.94802666780703 33.33379619371158),458,725 W Warner Rd,Tempe,AZ,85284,,206444,73,{e6cca37a-669e-451d-b1fa-9d47e6c671ca},{9b4a0617-081d-4cb9-89ce-f5a31ccd9a61},33.33379619371150000000,-111.94802666780700000000
Sites.326,POINT (-87.03226788325331 33.31744573269782),ES 6600,"6600 Jefferson Metropolitan Pkwy
",McCalla,AL,35111,,377641,93,{6399efec-1708-4d47-b609-bba92b79de0f},,33.31744573269780000000,-87.03226788325330000000
Sites.367,POINT (-87.04049633220433 33.313670722465965),ES Gazelle,6761-6775 Jefferson Metropolitan Pkwy,McCalla,AL,35111,,255003,79,{0787ef1e-0de2-47c6-9cfd-ffd660035a84},,33.31367072246590000000,-87.04049633220430000000
Sites.328,POINT (-87.04114670482683 33.31183372997304),ES 6801-6831,"6801-6831 Jefferson Metropolitan Pkwy
",McCalla,AL,35111,,241787,57,{1002b957-0893-475d-ae95-f072036cd30a},,33.31183372997300000000,-87.04114670482680000000
Sites.129,POINT (-111.99468532729092 33.303299463856455),Plaza at Mountainside,40th st and Chandler Blvd.,Pheonix,AZ,85048,,420456,52,{4e994a75-d3cf-4260-84f4-744f90722d87},,33.30329946385640000000,-111.99468532729000000000
Sites.581,POINT (-96.87687885314278 33.22040708100647),Store 589,4650 W University Dr,Prosper,TX,75078,,402771,94,{774fb56e-a002-4342-9a90-ef6faa93fc99},,33.22040708100640000000,-96.87687885314270000000
Sites.544,POINT (-96.68128676090889 33.216613384738956),565,1801 N Lake Forest Dr,McKinney,TX,75071,,277959,96,{badd06d1-01d7-412f-bf8d-7d8a01fb7fd7},{a3063a40-85a5-46db-ad1e-34a5f3e908bf},33.21661338473890000000,-96.68128676090880000000
Sites.538,POINT (-96.63330418689087 33.21569941529711),488,1701 W University Dr,McKinney,TX,75069,,142745,70,{29a0f0f9-299f-4634-8cf9-b562fa9b5c37},{a3063a40-85a5-46db-ad1e-34a5f3e908bf},33.21569941529710000000,-96.63330418689080000000
Sites.183,POINT (-117.33316550196692 33.18380111885752),Fire Mountain Center,Vista Way & Via Esmarca,Oceanside,CA,92054,,185346,69,{26e00045-6ab6-4a1a-95a3-5e16b45d6569},,33.18380111885750000000,-117.33316550196600000000
Sites.244,POINT (-117.33266284182007 33.18263846049245),El Camino North,Vista way & El Camino Real,Oceanside,CA,92054,,698960,79,{7db72217-ace9-4560-b332-2e3a890605b4},{9332e7f4-c292-4480-af81-dacc89da5a87},33.18263846049240000000,-117.33266284182000000000
Sites.156,POINT (-117.33877065617186 33.17788539523975),North County Plaza,Marron Rd. & Jefferson St,Carlsbad,CA,92008,,360807,56,{a95fbfc8-eb12-4fc4-8f91-187d71d63b26},,33.17788539523970000000,-117.33877065617100000000
Sites.384,POINT (-86.28862700514594 33.17257544479066),809,41310 US Hwy 280,Sylacauga,AL,35150,,287612,70,{ab128efb-12be-88ae-8fc2-2283bbce823a},,33.17257544479060000000,-86.28862700514590000000
Sites.322,POINT (-86.75880752590585 33.16731444485205),ES 3610,3400 Highway 31,Calera,AL,35040,,244128,71,{e5795e7e-7996-4e0f-ad67-bac04ddffe84},,33.16731444485200000000,-86.75880752590580000000
Sites.205,POINT (-117.24757880989293 33.165973549350504),114230 - Melrose Village Plaza,1601 S Melrose Dr,Vista,CA,92081,,274273,71,{1fa407f7-3128-443f-8f37-b368ac953632},,33.16597354935050000000,-117.24757880989200000000
Sites.260,POINT (-117.09411209430627 33.143067604528405),"114080 - Del Norte Plaza
",W. El Norte Pkwy. & Centre City Pkwy,Escondido,CA,92026,,582411,43,{5b2c314c-4071-48b5-8acb-d5da96309788},{9332e7f4-c292-4480-af81-dacc89da5a87},33.14306760452840000000,-117.09411209430600000000
Sites.434,POINT (-96.80395600572706 33.12264491432978),Preston Lebanon Crossing,Preston Rd. & Lebanon Rd,Frisco,TX,75035,,798975,91,{c13995c3-ddc4-46cb-8704-a08e378836e9},,33.12264491432970000000,-96.80395600572700000000
Sites.551,POINT (-97.12978975313362 33.07501128545421),Store 573,3400 FM 407,Bartonville,TX,76226,,293465,54,{146433a7-0349-4b42-a4ea-1988b291a62d},{a3063a40-85a5-46db-ad1e-34a5f3e908bf},33.07501128545420000000,-97.12978975313360000000
Sites.231,POINT (-96.65560709513316 33.014859455307814),563,4017 14th St,Plano,TX,75074,,168764,93,{7407d132-cdf5-40d0-8195-14921d03d84c},,33.01485945530780000000,-96.65560709513310000000
Sites.517,POINT (-97.04661396589242 33.00991040871074),585,1101 Flower Mound Rd,"Flower Mound, ",TX,75028,,166545,92,{91470d32-5755-4341-9732-17cc56fff287},{a3063a40-85a5-46db-ad1e-34a5f3e908bf},33.00991040871070000000,-97.04661396589240000000
Sites.473,POINT (-96.70952027659811 33.00741267597962),Accent Plaza,Accent Dr. & Plano Pkwy.,Plano,TX,75075,,257124,87,{12dadd82-10f1-4a77-a633-4af3dda834aa},,33.00741267597960000000,-96.70952027659810000000
Sites.254,POINT (-117.07638387477402 32.98716296847779),Carmel Mountain Plaza,Carmel Mountain Rd. and Rancho Carmel Dr.,San Diego,Ca,92128,,172689,81,{0a7932c7-f24a-4736-8d29-c8d6bb6f209c},,32.98716296847770000000,-117.07638387477400000000
Sites.560,POINT (-117.12559986490471 32.958181940389224),"116100 - Rancho Penasquitos Towne Center I
",13189 Black Mountain Rd,San Diego,CA,92129,,121627,67,{f287f84e-1f93-41f9-b43a-1462f038652d},,32.95818194038920000000,-117.12559986490400000000
Sites.556,POINT (-117.12527691642886 32.95808941072223),"116101 - Rancho Penasquitos Towne Ctr Vons Prop
",13189 Black Mountain Rd,San Diego,CA,92129,,106659,69,{34089a32-712e-4058-aa2a-129cf85ac00c},{9332e7f4-c292-4480-af81-dacc89da5a87},32.95808941072220000000,-117.12527691642800000000
Sites.282,POINT (-117.12609017097486 32.95784908566483),"116100 - Rancho Penasquitos Towne Center
",13189 Black Mountain Rd,San Diego,CA,92129,,324861,72,{a0050ed0-2c9f-4b72-b611-60405179535b},{9332e7f4-c292-4480-af81-dacc89da5a87},32.95784908566480000000,-117.12609017097400000000
Sites.522,POINT (-117.12609017097486 32.95784908566483),"116100 - Rancho Penasquitos Towne Center I
",13189 Black Mountain Rd,San Diego,CA,92129,,228306,66,{020d4ec2-9a63-41ff-ab05-e93a31695e39},{9332e7f4-c292-4480-af81-dacc89da5a87},32.95784908566480000000,-117.12609017097400000000
Sites.579,POINT (-117.12609017097486 32.95784908566483),"116100 - Rancho Penasquitos Towne Center I
",13189 Black Mountain Rd,San Diego,CA,92129,,228306,66,{65edb614-6e20-4201-bfdf-a525357baea3},{9332e7f4-c292-4480-af81-dacc89da5a87},32.95784908566480000000,-117.12609017097400000000
Sites.180,POINT (-117.03551614792339 32.957499114475084),111950 - Poway City Centre,Poway Rd. & Midland Rd.,Poway,CA,92064,,213245,67,{7605888f-9e90-4e4d-a5b9-306cfe517c9e},,32.95749911447500000000,-117.03551614792300000000
Sites.527,POINT (-117.1265478386984 32.95714077869953),"116100 - Rancho Penasquitos Towne Center
II",13189 Black Mountain Rd,San Diego,CA,92129,,96539,64,{5995d832-6c94-4e22-a5ca-4eb03eac52fe},{9332e7f4-c292-4480-af81-dacc89da5a87},32.95714077869950000000,-117.12654783869800000000
Sites.574,POINT (-117.1265478386984 32.95714077869953),"116100 - Rancho Penasquitos Towne Center
II",13189 Black Mountain Rd,San Diego,CA,92129,,96539,87,{fdd55646-2bc8-4149-b728-985749d7cb17},{9332e7f4-c292-4480-af81-dacc89da5a87},32.95714077869950000000,-117.12654783869800000000
Sites.502,POINT (-97.28015509638556 32.9556151730341),562,12600 N Beach St, Fort Worth,TX,76244,,329189,92,{26683d68-5fb8-45fd-8b06-bcfd8580943b},,32.95561517303410000000,-97.28015509638550000000
Sites.266,POINT (-96.46058690440859 32.94969392103727),574,1950 N Goliad St,Rockwall,TX,75087,,235523,98,{b3ba892d-bc76-eed7-ad1f-fbe88726cda4},,32.94969392103720000000,-96.46058690440850000000
Sites.153,POINT (-117.12625159509493 32.91760968195197),Black Mountain Village,Mira Mesa Blvd & Black Mountain Rd,San Diego,CA,92126,,107319,55,{7a148f42-6cdd-4d47-8083-49986fecc512},,32.91760968195190000000,-117.12625159509400000000
Sites.321,POINT (-96.80510053277004 32.90843650880314),Preston Forest Village,Preston Rd. & Forest Lane,Dallas,TX,75230,,297808,86,{0f9e46a1-788d-4afa-80f8-47b263fb31c7},{9332e7f4-c292-4480-af81-dacc89da5a87},32.90843650880310000000,-96.80510053277000000000
Sites.520,POINT (-97.27084568479638 32.89582169855691),532,5241 N Tarrant Pkwy,Fort Worth,TX,76244,,211601,80,{168acbe1-3d24-4144-b406-08f37bcf5b15},,32.89582169855690000000,-97.27084568479630000000
Sites.550,POINT (-96.4710934652523 32.8888699343259),575,2935 Ridge Rd,Rockwall,TX,75032,,242270,90,{98be8776-ad6e-aff2-2b29-ad8923ebf762},,32.88886993432590000000,-96.47109346525230000000
Sites.569,POINT (-97.39516514212292 32.88179827070083),576,4750 W Bailey Boswell Rd,NULLFort Worth,TX,76179,,348283,96,{96a5cb97-030f-4d16-be7a-0fcf6eeed3be},,32.88179827070080000000,-97.39516514212290000000
Sites.618,POINT (-116.98103114574135 32.840892590556365),Santee Trolley Center,Mission Gorge Rd. & Cuyamaca St.,Santee,CA,92071,,785912,79,{cdd35465-56dc-4725-b873-eedfe1552a7f},,32.84089259055630000000,-116.98103114574100000000
Sites.602,POINT (-117.15838796838257 32.82087512280635),"100390 - Vista Balboa Center
",4229-4349 Ruffner St,San Diego,CA,92111,,277690,61,{c20728be-ada0-467f-9409-97503a562dc9},{9332e7f4-c292-4480-af81-dacc89da5a87},32.82087512280630000000,-117.15838796838200000000
Sites.545,POINT (-96.82883108187417 32.81431492191679),Store 509,4901 Maple Ave,Dallas,TX,75235,,95945,89,{4d0b191a-773a-4575-b2e1-e1babc5355d1},{a3063a40-85a5-46db-ad1e-34a5f3e908bf},32.81431492191670000000,-96.82883108187410000000
Sites.585,POINT (-96.81245108069126 32.81292131749987),528,4142 Cedar Springs Rd,Dallas,TX,75219,,104741,79,{4f5ea8fc-724d-42fe-baa4-df559dccfd36},,32.81292131749980000000,-96.81245108069120000000
Sites.436,POINT (-96.78976062544876 32.803278771453066),Cityplace Market,Rte. 75 & Lemmon Ave,Dallas,TX,75204,,151854,84,{e873de5c-6972-4f2b-bb08-1c886be8631b},{9332e7f4-c292-4480-af81-dacc89da5a87},32.80327877145300000000,-96.78976062544870000000
Sites.411,POINT (-96.6004012542391 32.77181936107096),"102560 - Kroger Plaza
",525 N Galloway Ave,Mesquite,TX,75149,,250464,70,{f780db3a-1c58-4aec-8738-f9701ba39973},{9332e7f4-c292-4480-af81-dacc89da5a87},32.77181936107090000000,-96.60040125423910000000
Sites.531,POINT (-97.35175380927416 32.754843299588885),Montgomery Plaza,W. 7th St. & Carroll St.,Fort Worth,TX,76107,,887317,98,{ff905f55-dc76-4172-8c94-7206a5861ea4},,32.75484329958880000000,-97.35175380927410000000
Sites.287,POINT (-117.0997743827389 32.74867048451385),"116890 - City Heights Center
",3830-3950 42nd St,San Diego,CA,92105,,154643,91,{f6cef57d-4e09-4ec4-8a7b-31e8c23d6d08},{9332e7f4-c292-4480-af81-dacc89da5a87},32.74867048451380000000,-117.09977438273800000000
Sites.576,POINT (-96.44947661516879 32.74848251873163),579 - Forney,500 Marketplace Blvd,Forney,TX,75126,,327799,97,{81440020-99be-4c99-b750-3a242afce100},{a3063a40-85a5-46db-ad1e-34a5f3e908bf},32.74848251873160000000,-96.44947661516870000000
Sites.568,POINT (-117.20587891098258 32.7471687008564),Kimco - 114210 Loma Square,Rosecrans St. & Midway Dr.,San Diego,CA,92110,,395840,71,{3fc3c7e5-2e33-48e9-b0c0-228183c0fe22},{9332e7f4-c292-4480-af81-dacc89da5a87},32.74716870085640000000,-117.20587891098200000000
Sites.275,POINT (-116.93052721347601 32.74561957594971),Rancho San Diego,Jamacha Rd. & Fury Lane,El Cajon,CA,92019,,236302,65,{b58b2091-654e-4d98-80ce-e7a715927e10},,32.74561957594970000000,-116.93052721347600000000
Sites.74,POINT (-97.04254300299999 32.67391972400003),Kroger Dallas - 817,2525 I-20 Frontage Rd,Grand Prairie,TX,75052,,201915,93,{F0B4D1B7-5F4B-4119-8E33-CC8F9842C461},,32.67391972400000000000,-97.04254300299990000000
Sites.542,POINT (-97.18874038227345 32.64861770412558),Store 592,5101 W Sublet Rd.,Arlington,Tx,76017,,357634,94,{bcb35386-a5e2-41f5-b5a9-af6bcd06d8b7},{a3063a40-85a5-46db-ad1e-34a5f3e908bf},32.64861770412550000000,-97.18874038227340000000
Sites.493,POINT (-97.06005030594568 32.645674022158644),Lake Prairie Towne Crossing,New Hwy 360 & W Camp Wisdom Rd.,Grand Prairie,TX,75052,,1255825,92,{54eb5841-a829-4a32-8650-9bb45ed5e1c0},,32.64567402215860000000,-97.06005030594560000000
Sites.583,POINT (-97.0833966472996 32.57389735247818),594,3300 E Broad St,Mansfield,TX,76063,,321566,88,{be765ade-75ba-de5c-877f-743c6bd32aa7},,32.57389735247810000000,-97.08339664729960000000
Sites.617,POINT (-97.32089720534513 32.569679041063885),117690 Gateway Station Phase II,NcAlister Road & Ashbury Blvd. on Hwy. 35,Burleson,TX,76028,,181959,95,{ff0e4c0f-cf9b-4938-a083-3e8515ad3954},,32.56967904106380000000,-97.32089720534510000000
Sites.638,POINT (-97.32176591845801 32.56807602707043),104960 Gateway Station,McAlister Road & Ashbury Blvd. on Hwy. 35,Burleson,TX,76028,,808770,97,{44e48272-8a2b-4503-acaa-c2baaf38c126},,32.56807602707040000000,-97.32176591845800000000
Sites.580,POINT (-97.34926667822438 32.516593694177494),Store 591,1631 SW Wilshire Blvd,Burleson,TX,76028,,332601,94,{17631a14-5e00-4c96-b55a-111d21221752},{a3063a40-85a5-46db-ad1e-34a5f3e908bf},32.51659369417740000000,-97.34926667822430000000
Sites.298,POINT (-85.05087524354909 32.50742275150634),817,3784 US-431 N,Phenix City,AL,36867,,282300,51,{8c54d473-c594-4f87-98c6-0dba23f59b31},{9b4a0617-081d-4cb9-89ce-f5a31ccd9a61},32.50742275150630000000,-85.05087524354900000000
Sites.524,POINT (-96.99335196338997 32.45890873961014),596,2200 FM 663,Midlothian,TX,76065,,323302,92,{cc0f39dc-7b7b-4ddc-ba23-f6bd096953b9},,32.45890873961010000000,-96.99335196338990000000
Sites.570,POINT (-97.72692876543357 32.453929692677654),917,3915 Hwy 377,Granbury,TX,76049,,373085,89,{2bd8eef7-18cd-99ea-827c-add73654bcd8},,32.45392969267760000000,-97.72692876543350000000
Sites.311,POINT (-99.78322282246302 32.408846903809625),6583,4590 SW Dr,Abilene,TX,79601,,281710,69,{858017c8-1822-4fd7-b999-bbb19f8f7333},{9b4a0617-081d-4cb9-89ce-f5a31ccd9a61},32.40884690380960000000,-99.78322282246300000000
Sites.281,POINT (-93.72899830245213 32.39378383151239),533,9484 Ellerbe Rd,Shreveport,LA,71106,,361156,95,{23b822de-9de7-fad7-e72b-ad9755bdce8f},,32.39378383151230000000,-93.72899830245210000000
Sites.49,POINT (-110.97644416299994 32.350519656000074),Entrada de Oro Plaza SC,7951 N Oracle Rd,Oro Valley,AZ,85704,,328123,,{6644E498-26B2-482F-AEE5-674CF4F8522C},,32.35051965600000000000,-110.97644416299900000000
Sites.273,POINT (-90.87318868430356 32.316634138722335),2909,50 Halls Ferry Rd,Vicksburg,MS,39180,,458042,25,{48a77a2b-4167-4b49-9d81-aece00a9ee54},{9b4a0617-081d-4cb9-89ce-f5a31ccd9a61},32.31663413872230000000,-90.87318868430350000000
Sites.278,POINT (-90.87318868430356 32.316634138722335),2909,50 Halls Ferry Rd,Vicksburg,MS,39180,,229021,54,{9c835fdd-8988-426b-88ae-2bb41e795f5e},{9b4a0617-081d-4cb9-89ce-f5a31ccd9a61},32.31663413872230000000,-90.87318868430350000000
Sites.54,POINT (-110.79728952299996 32.258799570000065),Madera Village,9125 E Tanque Verde Rd,Tucson,AZ,85749,,224639,65,{43123E73-FDE8-4CFB-BFBD-D63751C46E18},,32.25879957000000000000,-110.79728952299900000000
Sites.397,POINT (-98.9794104419968 31.731375590831778),6820,100 Market Pl Blvd,Brownwood,TX,76801,,235853,60,{ff989ccc-f961-4b16-b916-1735c16506d0},{9b4a0617-081d-4cb9-89ce-f5a31ccd9a61},31.73137559083170000000,-98.97941044199680000000
Sites.11,POINT (-97.90864719589858 31.11530316320416),Copperas Cove,674 Town Square,Copperas Cove,Tx,76522,,404197,28,{e51f2a37-af65-437d-b900-4d51a91ae5cf},{2cfca3c6-8eab-43ed-9e3d-a0517508779e},31.11530316320410000000,-97.90864719589850000000
Sites.446,POINT (-81.54888841137824 30.628753251094),6921,463785 State Rd 200,Yulee,FL,32097,,358517,68,{14d754d3-1134-459b-8a82-b7769ad25b33},{9b4a0617-081d-4cb9-89ce-f5a31ccd9a61},30.62875325109400000000,-81.54888841137820000000
Sites.308,POINT (-97.78832771233571 30.531602782408275),6585,2700 E Whitestone Blvd,Cedar Park,TX,78613,,323452,71,{1c8dd0a4-d24c-417d-b9bc-bd79583282b5},,30.53160278240820000000,-97.78832771233570000000
Sites.238,POINT (-89.09447940135921 30.42940141525463),2901,15220 Creosote Rd,Gulfport,MS,39503,,290064,64,{18f273bd-a298-4a96-8ed3-d2644ff63723},{9b4a0617-081d-4cb9-89ce-f5a31ccd9a61},30.42940141525460000000,-89.09447940135920000000
Sites.268,POINT (-89.09447940135921 30.42940141525463),2901,15220 Creosote Rd,Gulfport,MS,39503,,290064,52,{3695dfa1-5270-492c-8fdb-a65a3bb17a55},{9b4a0617-081d-4cb9-89ce-f5a31ccd9a61},30.42940141525460000000,-89.09447940135920000000
Sites.444,POINT (-95.48104166341457 30.34770503929962),Conroe Marketplace,I-45 & FM 3083,Conroe,Tx,77303,,901394,89,{7f988763-7226-46fb-8d11-ca43d4a96fa6},{9332e7f4-c292-4480-af81-dacc89da5a87},30.34770503929960000000,-95.48104166341450000000
Sites.633,POINT (-97.70552173878635 30.321201064049102),"Latipac Property Management - Austin, TX",6021 N Interstate 35 Frontage Rd,Austin,TX,78723,,52598,36,{80b2d70f-482d-40d9-908e-73a617832c52},,30.32120106404910000000,-97.70552173878630000000
Sites.279,POINT (-97.95547407413109 30.318501582178953),6531,3600 Ranch Rd 620 S,Bee Cave,TX,78738,,302592,92,{dbd2b1fd-8ff3-4a95-8bb3-ef7a92e13604},,30.31850158217890000000,-97.95547407413100000000
Sites.474,POINT (-97.87491178420208 30.23544124197817),"105890 - Center of the Hills
",7010 State Hwy 71,Austin,TX,78735,,354775,70,{6e2bb5cf-f541-4dbf-8ede-de0ff5cd6173},{9332e7f4-c292-4480-af81-dacc89da5a87},30.23544124197810000000,-97.87491178420200000000
Sites.227,POINT (-97.82094493646645 30.23048475691231),TEST 113780 - Sunset Valley Marketfair,5400 Brodie Ln,Sunset Valley,TX,78745,,606927,50,{9ebf7a35-58f7-4e3b-87d2-aa3bd8960da6},{9332e7f4-c292-4480-af81-dacc89da5a87},30.23048475691230000000,-97.82094493646640000000
Sites.433,POINT (-97.82094493646645 30.23048475691231),"113780 - Sunset Valley Marketfair
",5400 Brodie Ln,Sunset Valley,TX,78745,,606927,50,{795cf003-8406-4dc6-8abd-31041aa2dfac},{9332e7f4-c292-4480-af81-dacc89da5a87},30.23048475691230000000,-97.82094493646640000000
Sites.1068,POINT (-85.66947606511587 30.19141943871561),23rd Street Station,650 W 23rd St,Panama City,FL,32405,,331566,65,{91126ab1-0ad1-4975-98fe-1d3e772f66ef},{d2111fe3-99f7-459b-b5bb-5d687d04813b},30.19141943871560000000,-85.66947606511580000000
Sites.594,POINT (-95.23119073939188 30.105993165095843),6523,23575 US-59,Porter,TX,77365,,276824,82,{03668e52-1e55-434f-bc85-19c285d8e3fa},,30.10599316509580000000,-95.23119073939180000000
Sites.513,POINT (-95.52047774336192 30.08679636961287),117500 Grand Parkway Marketplace,Grand Parkway & Kuykendahl Rd.,Spring,TX,77379,,1040845,94,{9be63ad2-6bea-5322-7bd3-122bcc7834ad},,30.08679636961280000000,-95.52047774336190000000
Sites.488,POINT (-95.52091773137673 30.083491556906303),Grand Parkway Marketplace II,Spring Stuebner Rd. & Kuykendahl Rd.,Spring,TX,77389,,753694,94,{233d2540-2f44-459d-9a3c-f34cbdb6f2cd},,30.08349155690630000000,-95.52091773137670000000
Sites.607,POINT (-95.5906213704474 30.01034940824107),Tomball Crossing,State Hwy. 249 & Lakewood Crossing Rd.,Houston,Tx,77377,,462024,78,{8f80a622-f271-465b-941e-2aae3a0ae5bf},{9332e7f4-c292-4480-af81-dacc89da5a87},30.01034940824100000000,-95.59062137044740000000
Sites.478,POINT (-95.1705423579488 29.999904322899848),Atascocita Commons,Humble Westfield Rd & W. Lake Houston Pkwy,Humble ,TX,77346,,837206,97,{72d40f5e-3057-42b4-af94-0bed8b0e8b78},,29.99990432289980000000,-95.17054235794880000000
Sites.306,POINT (-95.69294864905528 29.97300730968893),6586,17928 Spring Cypress Rd,Cypress,TX,77429,,285836,91,{50299ae1-97e4-4682-bc62-6a4cbd50bd54},{9b4a0617-081d-4cb9-89ce-f5a31ccd9a61},29.97300730968890000000,-95.69294864905520000000
Sites.558,POINT (-95.69374728461472 29.970151393650305),Cypress Towne Center_110861,US 290 & Spring Cypress Rd.,Houston,TX,77429,,24692,85,{bf8657aa-316e-49db-8d16-ba03ad72a938},,29.97015139365030000000,-95.69374728461470000000
Sites.588,POINT (-95.69351849091271 29.968650013807867),Cypress Towne Center - 110862,US 290 & Spring Cypress Rd.,Houston,TX,77429,,502227,93,{c7ded485-24b8-42b3-b9f4-50b0181493a1},,29.96865001380780000000,-95.69351849091270000000
Sites.224,POINT (-95.69173222557144 29.966453221953614),Cypress Towne Center - 110860 TEST,US 290 & Spring Cypress Rd.,Houston,TX,77429,,69010,99,{33b62c84-cf1c-412d-9275-a163fdad8af5},{9b4a0617-081d-4cb9-89ce-f5a31ccd9a61},29.96645322195360000000,-95.69173222557140000000
Sites.557,POINT (-95.69118026669076 29.96570556266074),Cypress Towne Center - 110863,US 290 & Spring Cypress Rd.,Houston,TX,77429,,119137,96,{d7cb6c0e-c6ed-498b-8f14-0fe8aa79a4e7},,29.96570556266070000000,-95.69118026669070000000
Sites.20,POINT (-90.18706049589679 29.96532053496616),362,5151 Citrus Blvd,Harahan,LA,70123,,244659,96,{99aa3774-72e1-40ef-94cf-08907316af8d},,29.96532053496610000000,-90.18706049589670000000
Sites.458,POINT (-95.6441050203171 29.881278974927074),The Center at Copperfield,FM 529 & Hwy. 6,Houston,TX,77084,,327479,81,{b2d03f6d-7dda-4a5b-9b08-bb449ebe908a},,29.88127897492700000000,-95.64410502031710000000
Sites.427,POINT (-95.6464860677297 29.881071271218307),"117490 - Copperfield Village
",6867 Hwy 6 N,Houston,TX,77084,,360487,48,{4aee35f8-09de-4419-9575-388f4ce0919f},{9332e7f4-c292-4480-af81-dacc89da5a87},29.88107127121830000000,-95.64648606772970000000
Sites.494,POINT (-95.64644302215474 29.874535260218316),Copperwood Village,FM 529 & Hwy. 6,Houston,TX,77084,,811862,55,{2f6b0f72-ab12-4670-8b10-0d49b64052a3},,29.87453526021830000000,-95.64644302215470000000
Sites.38,POINT (-95.31366928899996 29.711799822000046),I45/Telephone Rd,6000 Gulf Fwy,Houston,TX,77023,,409487,33,{B02E261E-8F3F-4355-8821-72C0125042E8},,29.71179982200000000000,-95.31366928899990000000
Sites.428,POINT (-95.64974594533453 29.648035399061694),116750 Woodbridge S.C.,"State Hwy. 6 &, W. Airport Blvd.",Sugar Land,TX,77498,,309221,86,{12be82de-ac8e-fb2a-228b-12be876adf62},,29.64803539906160000000,-95.64974594533450000000
Sites.1071,POINT (-95.15304735421242 29.647545637935647),100100 Fairway Plaza,Fairmont Pkwy & Sam Houston Pkwy,Pasadena,TX,77505,,,,{2bbf9028-d776-522c-a12d-92018dffbe92},,29.64754563793560000000,-95.15304735421240000000
Sites.14,POINT (-95.44446785099996 29.612338847000046),Southgate Shopping Center,West Fuqua St. & Hiram Clarke,Houston,TX,77045,,285937,62,{FA64AC1B-8F7E-4027-AB9C-665D0332F6BE},,29.61233884700000000000,-95.44446785099990000000
Sites.350,POINT (-95.02397578729678 29.539136023729327),6560,507 FM 2094,Clear Lake Shores,TX,77565,,345640,94,{a4ae28a7-ebc0-4bc9-88f8-3ada51c5d591},,29.53913602372930000000,-95.02397578729670000000
Sites.489,POINT (-95.13577868651193 29.53612408115182),Center at Baybrook,Gulf Frwy. I-45 & Medical Center Blvd.,Webster ,TX,77598,,875582,92,{7ac3e066-1086-42bd-aecb-be937d779e12},{9332e7f4-c292-4480-af81-dacc89da5a87},29.53612408115180000000,-95.13577868651190000000
Sites.84,POINT (-81.00295110599995 29.124647432000074),Truist Bank - Port Orange,3865 S Nova Rd,Port Orange,FL,32127,13200,13200,,{65FC690E-DC12-41AB-A67A-626227B8272C},,29.12464743200000000000,-81.00295110599990000000
Sites.356,POINT (-95.45877574049646 29.043620875441672),6517,100 Abner Jackson Pkwy,Lake Jackson,TX,77566,,289464,88,{87785f67-c0c5-438e-9a93-133be9d45efc},{9b4a0617-081d-4cb9-89ce-f5a31ccd9a61},29.04362087544160000000,-95.45877574049640000000
Sites.88,POINT (-81.33358377199994 28.698416334000058),Truist Bank - Longwood,801 E State Rd,Longwood,FL,32750,34416,34416,33,{7DB20A33-B3CC-4CC9-8A7E-8B8A6B94A1A8},,28.69841633400000000000,-81.33358377199990000000
Sites.63,POINT (-81.32630300699998 28.60114172200008),Winter Park Corners,1951 Aloma Ave,Winter Park,FL,32792,,246411,89,{161930A1-A047-41C8-8616-3531FBA3F086},,28.60114172200000000000,-81.32630300699990000000
Sites.80,POINT (-82.53869150299994 28.45091292400008),Truist Bank - Spring Hill,"1170 Mariner Blvd, Spring Hill, FL 34609",Spring Hill,FL,34609,41937,41937,61,{A1D7A1A0-8674-4DBC-B3B0-CCF3C8B9322B},,28.45091292400000000000,-82.53869150299990000000
Sites.209,POINT (-81.4025781627652 28.374864615082203),6328,13121 S Orange Blossom Tr,Orlando,FL,32837,,367485,70,{52cdae41-ab25-4268-8662-01513738bc4a},,28.37486461508220000000,-81.40257816276520000000
Sites.9,POINT (-82.36534835579333 28.128432208499508),6311,17601 Bruce B Downs Blvd,Tampa,FL,33647,,261918,74,{7649e438-d02a-47d7-83c0-f850fe18f8a4},,28.12843220849950000000,-82.36534835579330000000
Sites.79,POINT (-82.39867784799998 28.098496949000037),Truist Bank - Tampa,16102 Bruce B Downs Blvd,Tampa,FL,33647,31185,31185,59,{18E84CF9-6FB8-4C56-8685-5B6DA39FDE22},,28.09849694900000000000,-82.39867784799990000000
Sites.85,POINT (-80.62024810699995 28.035838339000065),Truist Bank - Palm Bay,1725 Palm Bay Rd NE,Palm Bay,FL,32905,51182,51182,62,{9A985C54-4EF1-4C3B-B3F4-86490E237CAF},,28.03583833900000000000,-80.62024810699990000000
Sites.591,POINT (-82.26204053172906 27.93920996729749),6305,1524 E Brandon Blvd,Brandon,FL,33511,,242037,62,{19800385-cb60-41e5-be9b-a11dcc8a75da},,27.93920996729740000000,-82.26204053172900000000
Sites.1084,POINT (-82.32455572274596 27.936624945027578),"100110 - Plaza at Brandon Town Center
",187 Brandon Town Center Dr,Brandon,FL,33511,,442042,76,{8d208d85-993b-441a-b0aa-4b0ef7a10409},{9b4a0617-081d-4cb9-89ce-f5a31ccd9a61},27.93662494502750000000,-82.32455572274590000000
Sites.640,POINT (-82.452201180127 27.936442417956172),529004,900 S Harbour Island Blvd,Tampa,FL,33602,,67302,52,{5cfc6ead-43bc-46b1-8c59-0e59e6cfb5c4},{9b4a0617-081d-4cb9-89ce-f5a31ccd9a61},27.93644241795610000000,-82.45220118012700000000
Sites.439,POINT (-97.62620673974432 27.859999552124034),6564,13202 LEOPARD STREET,Corpus Christi,TX,78410,,317796,80,{12b82bc8-12ae-8c76-ff8b-98bef872c54c},,27.85999955212400000000,-97.62620673974430000000
Sites.371,POINT (-82.72692272417076 27.788447597684407),6364,2070 Tyrone Blvd,St. Petersburg,FL,33710,,368818,0,{2ab35a56-ae87-4f36-8f33-dae5341328a2},,27.78844759768440000000,-82.72692272417070000000
Sites.374,POINT (-82.72692272417076 27.788447597684407),6364,2070 Tyrone Blvd,St. Petersburg,FL,33710,,255897,67,{2ab35a56-ae87-4f36-8f33-dae5341328a3},,27.78844759768440000000,-82.72692272417070000000
Sites.1,POINT (-80.44787458674114 27.636766288867584),213, 1885 58TH AVE,Vero,FL,32966,,260323,,{b7a2ca5c-fd14-4737-92d7-679b34e4c771},,27.63676628886750000000,-80.44787458674110000000
Sites.82,POINT (-99.49972292199999 27.571048647000055),North Creek Plaza,San Dario Ave & Del Mar Blvd,Laredo,TX,78045,935964,935964,79,{46EDE0BA-0076-41D9-A643-5A3CD595636C},,27.57104864700000000000,-99.49972292199990000000
Sites.78,POINT (-80.09765900999997 26.713478429000077),Truist Bank - West Palm Beach,540 Village Blvd,West Palm Beach,FL,33409,66977,56093,49,{C037DF27-A079-47DA-BF53-3138EDAEF6F1},,26.71347842900000000000,-80.09765900999990000000
Sites.345,POINT (-80.20106075733545 26.67624748296282),6379,220 S State Rd 7,West Palm Beach,FL,33414,,254417,73,{a39228c3-b7b4-414f-b963-8d3a0fb849f2},,26.67624748296280000000,-80.20106075733540000000
Sites.24,POINT (-98.79985186399995 26.370205145000057),Starr Plaza,4031 E US Hwy 83,Rio Grande City,TX,78582,,444274,69,{67860084-6541-47FB-99CF-ACFAB72ED863},,26.37020514500000000000,-98.79985186399990000000
Sites.348,POINT (-80.11818106456442 26.316786837943937),218,60 SW 12th Ave,Deerfield Beach,FL,33442,,163624,94,{bdb96dc1-128a-4eca-ba09-22461f143829},,26.31678683794390000000,-80.11818106456440000000
Sites.48,POINT (-98.21583693599996 26.271796747000053),Trenton Crossing North McAllen,N 10th St. & Trenton Rd,McAllen,TX,78504,715985,715985,93,{130FBB1B-9CA0-4B6C-BEE6-10C0911D3B6A},,26.27179674700000000000,-98.21583693599990000000
Sites.31,POINT (-80.25558555399994 26.239511235000066),1136 Coral Springs,650 North Univserity,Coral Springs,FL,33071,,110749,64,{624DEF26-BF47-4D69-94E1-1A7B3594BEDE},,26.23951123500000000000,-80.25558555399990000000
Sites.36,POINT (-98.28401419299996 26.19706300400003),Sharyland Towne Crossing,Shary Rd & US Hwy 83 Shary Rd,Mission,TX,78572,,1079356,65,{30B89937-5FCB-4EE5-A7DE-B85D23537927},,26.19706300400000000000,-98.28401419299990000000
Sites.60,POINT (-98.23214986999994 26.187484762000054),Old Navy - McAllen,S 10th St at US 83,McAllen,TX,,,37768,75,{14D5FF96-82D7-442F-A55C-4219781F247B},,26.18748476200000000000,-98.23214986999990000000
Sites.230,POINT (-80.13882573558502 26.138478866858602),6372,1000 NE 4th Ave,Fort Lauderdale,FL,33304,,52646,85,{87710204-8447-423f-954f-57ca06210089},,26.13847886685860000000,-80.13882573558500000000
Sites.5,POINT (-80.17404512141825 26.013359277521552),120640 - Hollywood Hills Plaza,Hollywood Blvd. & N Park Rd.,Hollywood,FL,33021,,656344,65,{12b8cd35-23b9-143c-ff8ad762ad8e},,26.01335927752150000000,-80.17404512141820000000
Sites.22,POINT (-80.25145205092302 26.01304374764282),120610 Pembroke Commons,N University Dr. & Johnson St.,Pembroke Pines,FL,33024,,738397,60,{12bc892a-33ce-1a8d-28bf-12bb98df12dd},{9b4a0617-081d-4cb9-89ce-f5a31ccd9a61},26.01304374764280000000,-80.25145205092300000000
Sites.637,POINT (-80.31364086614721 26.00555743675163),Flamingo Pines Shopping Center,S Flamingo Rd. & Pines Blvd.,Pembroke Pines ,FL,33027,,404420,30,{8fb1039e-81a6-4077-a4cf-1d8cc611669f},,26.00555743675160000000,-80.31364086614720000000
Sites.586,POINT (-97.50884287379027 25.968443317384075),Las Tiendas Plaza,US 77/83 Expwy. & Morrison Rd.,"Brownsville,  ",TX,78526,,625746,87,{be864208-992d-4b2f-bc6e-ce32705756fc},,25.96844331738400000000,-97.50884287379020000000
Sites.603,POINT (-80.4189245836269 25.759950935369233),"120600 - Tamiami Trail Shops
",Tamiami Trail & SW 137th Ave,Miami,FL,33184,,297900,60,{e07f2883-68d5-46ca-8f1c-9f2c904cd504},{9332e7f4-c292-4480-af81-dacc89da5a87},25.75995093536920000000,-80.41892458362690000000
Sites.151,POINT (-66.4892860275372 18.430988817896647),Manati Villa Maria S.C.,PR-2 & Rte.149,Manati,PR,674,,120023,82,{7e3e32f0-ab9d-46f6-901b-d59d0c9a1265},,18.43098881789660000000,-66.48928602753720000000
Sites.148,POINT (-65.92554294406204 18.375875579017034),Los Colobos,PR-874 & PR-3,Carolina,PR,983,,1439907,60,{e3a7ab01-e9a1-4957-9945-aa682180f6b8},,18.37587557901700000000,-65.92554294406200000000
Sites.204,POINT (-66.01704713330177 18.369922538334283),113700 - Trujillo Alto Plaza,PR-181 & PR-846,Trujillo Alto,PR,908,,359777,29,{b0113994-d881-4e65-88e1-ea4b3c7fbb4c},,18.36992253833420000000,-66.01704713330170000000
Sites.150,POINT (-66.18797878421124 18.360542696534907),Rexville Town Center,SR PR 167 & PR 199,Bayamon,PR,957,,482809,78,{9432a3f9-6c40-43c9-9715-a7b32b5701e3},,18.36054269653490000000,-66.18797878421120000000
Sites.149,POINT (-66.0224343647496 18.248176519299903),Kimco Plaza Centro,PR-30 & Ave. Rafael Cordero,Caguas,PR,725,,1001882,68,{5079732c-0c13-44cd-a5d7-abf01eaa0317},,18.24817651929990000000,-66.02243436474960000000
Sites.210,POINT (-67.16357428937303 18.2432670529151),Western Plaza,PR2 & Rtu. 142,Mayaguez,PR,680,,961920,63,{af920256-5759-41c3-bb4f-27983ce83014},,18.24326705291510000000,-67.16357428937300000000
Sites.202,POINT (-66.63844467643685 17.996229029767125),"113680 - Ponce Town Center
","PR2 & PR10, C. Baramaya",Ponce,PR,715,,737473,6,{30f4e814-15f1-4f5e-b34b-74c890bf1c51},,17.99622902976710000000,-66.63844467643680000000
